{ "type": "FeatureCollection", "features": [{"type":"Feature","id":1,"properties":{"_id":"64246b67002514465f9fcd37","magneticDeclination":0.556,"alignedTrueNorth":false,"createdAt":"2023-03-29T16:46:31.513Z","updatedAt":"2023-03-29T16:46:31.516Z","name":"NGONG","identifier":"GV","type":6,"country":"KE","channel":"106X","frequency":{"value":"115.900","unit":2},"elevation":{"value":2378,"unit":0,"referenceDatum":1},"elevationGeoid":{"geoidHeight":-16.105366429919997,"hae":2361.89463357008},"range":{"value":50,"unit":2},"hoursOfOperation":{"operatingHours":[{"dayOfWeek":0,"startTime":"00:00","endTime":"00:00","byNotam":false,"sunrise":false,"sunset":false,"publicHolidaysExcluded":false},{"dayOfWeek":1,"startTime":"00:00","endTime":"00:00","byNotam":false,"sunrise":false,"sunset":false,"publicHolidaysExcluded":false},{"dayOfWeek":2,"startTime":"00:00","endTime":"00:00","byNotam":false,"sunrise":false,"sunset":false,"publicHolidaysExcluded":false},{"dayOfWeek":3,"startTime":"00:00","endTime":"00:00","byNotam":false,"sunrise":false,"sunset":false,"publicHolidaysExcluded":false},{"dayOfWeek":4,"startTime":"00:00","endTime":"00:00","byNotam":false,"sunrise":false,"sunset":false,"publicHolidaysExcluded":false},{"dayOfWeek":5,"startTime":"00:00","endTime":"00:00","byNotam":false,"sunrise":false,"sunset":false,"publicHolidaysExcluded":false},{"dayOfWeek":6,"startTime":"00:00","endTime":"00:00","byNotam":false,"sunrise":false,"sunset":false,"publicHolidaysExcluded":false}]},"createdBy":"OPONcQnzWGOLiJSceNaf8pvx1fA2","updatedBy":"OPONcQnzWGOLiJSceNaf8pvx1fA2"},"geometry":{"type":"Point","coordinates":[36.63794166666667,-1.3965916666666667]}}, {"type":"Feature","id":2,"properties":{"_id":"64246b6b002514465f9fcd44","magneticDeclination":0.44,"alignedTrueNorth":false,"createdAt":"2023-03-29T16:46:35.689Z","updatedAt":"2023-03-29T16:46:35.693Z","name":"STONY","identifier":"TV","type":6,"country":"KE","channel":"102X","frequency":{"value":"115.500","unit":2},"elevation":{"value":1581,"unit":0,"referenceDatum":1},"elevationGeoid":{"geoidHeight":-15.853780795580008,"hae":1565.14621920442},"range":{"value":50,"unit":2},"hoursOfOperation":{"operatingHours":[{"dayOfWeek":0,"startTime":"00:00","endTime":"00:00","byNotam":false,"sunrise":false,"sunset":false,"publicHolidaysExcluded":false},{"dayOfWeek":1,"startTime":"00:00","endTime":"00:00","byNotam":false,"sunrise":false,"sunset":false,"publicHolidaysExcluded":false},{"dayOfWeek":2,"startTime":"00:00","endTime":"00:00","byNotam":false,"sunrise":false,"sunset":false,"publicHolidaysExcluded":false},{"dayOfWeek":3,"startTime":"00:00","endTime":"00:00","byNotam":false,"sunrise":false,"sunset":false,"publicHolidaysExcluded":false},{"dayOfWeek":4,"startTime":"00:00","endTime":"00:00","byNotam":false,"sunrise":false,"sunset":false,"publicHolidaysExcluded":false},{"dayOfWeek":5,"startTime":"00:00","endTime":"00:00","byNotam":false,"sunrise":false,"sunset":false,"publicHolidaysExcluded":false},{"dayOfWeek":6,"startTime":"00:00","endTime":"00:00","byNotam":false,"sunrise":false,"sunset":false,"publicHolidaysExcluded":false}]},"createdBy":"OPONcQnzWGOLiJSceNaf8pvx1fA2","updatedBy":"OPONcQnzWGOLiJSceNaf8pvx1fA2"},"geometry":{"type":"Point","coordinates":[37.021225,-1.5034388888888888]}}, {"type":"Feature","id":3,"properties":{"_id":"64246b70002514465f9fcd54","magneticDeclination":0.519,"alignedTrueNorth":false,"createdAt":"2023-03-29T16:46:40.121Z","updatedAt":"2023-03-29T16:46:40.122Z","name":"NAVEX","identifier":"NV","type":7,"country":"KE","channel":"78X","frequency":{"value":"113.100","unit":2},"elevation":{"value":1596,"unit":0,"referenceDatum":1},"elevationGeoid":{"geoidHeight":-16.13702246053333,"hae":1579.8629775394666},"range":{"value":200,"unit":2},"hoursOfOperation":{"operatingHours":[{"dayOfWeek":0,"startTime":"00:00","endTime":"00:00","byNotam":false,"sunrise":false,"sunset":false,"publicHolidaysExcluded":false},{"dayOfWeek":1,"startTime":"00:00","endTime":"00:00","byNotam":false,"sunrise":false,"sunset":false,"publicHolidaysExcluded":false},{"dayOfWeek":2,"startTime":"00:00","endTime":"00:00","byNotam":false,"sunrise":false,"sunset":false,"publicHolidaysExcluded":false},{"dayOfWeek":3,"startTime":"00:00","endTime":"00:00","byNotam":false,"sunrise":false,"sunset":false,"publicHolidaysExcluded":false},{"dayOfWeek":4,"startTime":"00:00","endTime":"00:00","byNotam":false,"sunrise":false,"sunset":false,"publicHolidaysExcluded":false},{"dayOfWeek":5,"startTime":"00:00","endTime":"00:00","byNotam":false,"sunrise":false,"sunset":false,"publicHolidaysExcluded":false},{"dayOfWeek":6,"startTime":"00:00","endTime":"00:00","byNotam":false,"sunrise":false,"sunset":false,"publicHolidaysExcluded":false}]},"createdBy":"OPONcQnzWGOLiJSceNaf8pvx1fA2","updatedBy":"OPONcQnzWGOLiJSceNaf8pvx1fA2"},"geometry":{"type":"Point","coordinates":[36.95422777777778,-1.2999027777777776]}}, {"type":"Feature","id":4,"properties":{"_id":"64246b77002514465f9fcd70","magneticDeclination":0.844,"alignedTrueNorth":false,"createdAt":"2023-03-29T16:46:47.852Z","updatedAt":"2023-03-29T16:46:47.854Z","name":"MANDERA","identifier":"MAV","type":7,"country":"KE","channel":"84X","frequency":{"value":"113.700","unit":2},"elevation":{"value":204,"unit":0,"referenceDatum":1},"elevationGeoid":{"geoidHeight":-29.232590600245203,"hae":174.7674093997548},"hoursOfOperation":{"operatingHours":[{"dayOfWeek":0,"startTime":"00:00","endTime":"00:00","byNotam":false,"sunrise":false,"sunset":false,"publicHolidaysExcluded":false},{"dayOfWeek":1,"startTime":"00:00","endTime":"00:00","byNotam":false,"sunrise":false,"sunset":false,"publicHolidaysExcluded":false},{"dayOfWeek":2,"startTime":"00:00","endTime":"00:00","byNotam":false,"sunrise":false,"sunset":false,"publicHolidaysExcluded":false},{"dayOfWeek":3,"startTime":"00:00","endTime":"00:00","byNotam":false,"sunrise":false,"sunset":false,"publicHolidaysExcluded":false},{"dayOfWeek":4,"startTime":"00:00","endTime":"00:00","byNotam":false,"sunrise":false,"sunset":false,"publicHolidaysExcluded":false},{"dayOfWeek":5,"startTime":"00:00","endTime":"00:00","byNotam":false,"sunrise":false,"sunset":false,"publicHolidaysExcluded":false},{"dayOfWeek":6,"startTime":"00:00","endTime":"00:00","byNotam":false,"sunrise":false,"sunset":false,"publicHolidaysExcluded":false}]},"remarks":"Military airstrip","createdBy":"OPONcQnzWGOLiJSceNaf8pvx1fA2","updatedBy":"OPONcQnzWGOLiJSceNaf8pvx1fA2"},"geometry":{"type":"Point","coordinates":[41.8393075,3.9350883333333333]}}, {"type":"Feature","id":5,"properties":{"_id":"64246b7c002514465f9fcd7e","magneticDeclination":1.873,"alignedTrueNorth":false,"createdAt":"2023-03-29T16:46:52.028Z","updatedAt":"2023-03-29T16:46:52.031Z","name":"LODWA","identifier":"LOV","type":7,"country":"KE","channel":"90X","frequency":{"value":"114.300","unit":2},"elevation":{"value":511,"unit":0,"referenceDatum":1},"elevationGeoid":{"geoidHeight":-16.07485843501304,"hae":494.925141564987},"range":{"value":200,"unit":2},"hoursOfOperation":{"operatingHours":[{"dayOfWeek":0,"startTime":"00:00","endTime":"00:00","byNotam":false,"sunrise":false,"sunset":false,"publicHolidaysExcluded":false},{"dayOfWeek":1,"startTime":"00:00","endTime":"00:00","byNotam":false,"sunrise":false,"sunset":false,"publicHolidaysExcluded":false},{"dayOfWeek":2,"startTime":"00:00","endTime":"00:00","byNotam":false,"sunrise":false,"sunset":false,"publicHolidaysExcluded":false},{"dayOfWeek":3,"startTime":"00:00","endTime":"00:00","byNotam":false,"sunrise":false,"sunset":false,"publicHolidaysExcluded":false},{"dayOfWeek":4,"startTime":"00:00","endTime":"00:00","byNotam":false,"sunrise":false,"sunset":false,"publicHolidaysExcluded":false},{"dayOfWeek":5,"startTime":"00:00","endTime":"00:00","byNotam":false,"sunrise":false,"sunset":false,"publicHolidaysExcluded":false},{"dayOfWeek":6,"startTime":"00:00","endTime":"00:00","byNotam":false,"sunrise":false,"sunset":false,"publicHolidaysExcluded":false}]},"createdBy":"OPONcQnzWGOLiJSceNaf8pvx1fA2","updatedBy":"OPONcQnzWGOLiJSceNaf8pvx1fA2"},"geometry":{"type":"Point","coordinates":[35.612519364835634,3.1076255058004136]}}, {"type":"Feature","id":6,"properties":{"_id":"64246b7f002514465f9fcd8c","magneticDeclination":0.696,"alignedTrueNorth":false,"createdAt":"2023-03-29T16:46:55.900Z","updatedAt":"2023-03-29T16:46:55.902Z","name":"WAJIR","identifier":"WAV","type":7,"country":"KE","channel":"72X","frequency":{"value":"112.500","unit":2},"elevation":{"value":253,"unit":0,"referenceDatum":1},"elevationGeoid":{"geoidHeight":-25.87384967500003,"hae":227.12615032499997},"range":{"value":200,"unit":2},"hoursOfOperation":{"operatingHours":[{"dayOfWeek":0,"startTime":"00:00","endTime":"00:00","byNotam":false,"sunrise":false,"sunset":false,"publicHolidaysExcluded":false},{"dayOfWeek":1,"startTime":"00:00","endTime":"00:00","byNotam":false,"sunrise":false,"sunset":false,"publicHolidaysExcluded":false},{"dayOfWeek":2,"startTime":"00:00","endTime":"00:00","byNotam":false,"sunrise":false,"sunset":false,"publicHolidaysExcluded":false},{"dayOfWeek":3,"startTime":"00:00","endTime":"00:00","byNotam":false,"sunrise":false,"sunset":false,"publicHolidaysExcluded":false},{"dayOfWeek":4,"startTime":"00:00","endTime":"00:00","byNotam":false,"sunrise":false,"sunset":false,"publicHolidaysExcluded":false},{"dayOfWeek":5,"startTime":"00:00","endTime":"00:00","byNotam":false,"sunrise":false,"sunset":false,"publicHolidaysExcluded":false},{"dayOfWeek":6,"startTime":"00:00","endTime":"00:00","byNotam":false,"sunrise":false,"sunset":false,"publicHolidaysExcluded":false}]},"createdBy":"OPONcQnzWGOLiJSceNaf8pvx1fA2","updatedBy":"OPONcQnzWGOLiJSceNaf8pvx1fA2"},"geometry":{"type":"Point","coordinates":[40.08241666666667,1.7468055555555555]}}, {"type":"Feature","id":7,"properties":{"_id":"64246b83002514465f9fcd9a","magneticDeclination":1.331,"alignedTrueNorth":false,"createdAt":"2023-03-29T16:46:59.338Z","updatedAt":"2023-03-29T16:46:59.339Z","name":"ELDORET","identifier":"ELD","type":7,"country":"KE","channel":"94X","frequency":{"value":"114.700","unit":2},"elevation":{"value":2084,"unit":0,"referenceDatum":1},"elevationGeoid":{"geoidHeight":-13.080023310506661,"hae":2070.9199766894935},"range":{"value":200,"unit":2},"hoursOfOperation":{"operatingHours":[{"dayOfWeek":0,"startTime":"00:00","endTime":"00:00","byNotam":false,"sunrise":false,"sunset":false,"publicHolidaysExcluded":false},{"dayOfWeek":1,"startTime":"00:00","endTime":"00:00","byNotam":false,"sunrise":false,"sunset":false,"publicHolidaysExcluded":false},{"dayOfWeek":2,"startTime":"00:00","endTime":"00:00","byNotam":false,"sunrise":false,"sunset":false,"publicHolidaysExcluded":false},{"dayOfWeek":3,"startTime":"00:00","endTime":"00:00","byNotam":false,"sunrise":false,"sunset":false,"publicHolidaysExcluded":false},{"dayOfWeek":4,"startTime":"00:00","endTime":"00:00","byNotam":false,"sunrise":false,"sunset":false,"publicHolidaysExcluded":false},{"dayOfWeek":5,"startTime":"00:00","endTime":"00:00","byNotam":false,"sunrise":false,"sunset":false,"publicHolidaysExcluded":false},{"dayOfWeek":6,"startTime":"00:00","endTime":"00:00","byNotam":false,"sunrise":false,"sunset":false,"publicHolidaysExcluded":false}]},"createdBy":"OPONcQnzWGOLiJSceNaf8pvx1fA2","updatedBy":"OPONcQnzWGOLiJSceNaf8pvx1fA2"},"geometry":{"type":"Point","coordinates":[35.23106111111111,0.4066555555555556]}}, {"type":"Feature","id":8,"properties":{"_id":"64246b87002514465f9fcdaa","magneticDeclination":1.29,"alignedTrueNorth":false,"createdAt":"2023-03-29T16:47:03.803Z","updatedAt":"2023-03-29T16:47:03.805Z","name":"KISUMU","identifier":"KIV","type":7,"country":"KE","channel":"88X","frequency":{"value":"114.100","unit":2},"elevation":{"value":1138,"unit":0,"referenceDatum":1},"elevationGeoid":{"geoidHeight":-17.59242322533332,"hae":1120.4075767746667},"range":{"value":200,"unit":2},"hoursOfOperation":{"operatingHours":[{"dayOfWeek":0,"startTime":"00:00","endTime":"00:00","byNotam":false,"sunrise":false,"sunset":false,"publicHolidaysExcluded":false},{"dayOfWeek":1,"startTime":"00:00","endTime":"00:00","byNotam":false,"sunrise":false,"sunset":false,"publicHolidaysExcluded":false},{"dayOfWeek":2,"startTime":"00:00","endTime":"00:00","byNotam":false,"sunrise":false,"sunset":false,"publicHolidaysExcluded":false},{"dayOfWeek":3,"startTime":"00:00","endTime":"00:00","byNotam":false,"sunrise":false,"sunset":false,"publicHolidaysExcluded":false},{"dayOfWeek":4,"startTime":"00:00","endTime":"00:00","byNotam":false,"sunrise":false,"sunset":false,"publicHolidaysExcluded":false},{"dayOfWeek":5,"startTime":"00:00","endTime":"00:00","byNotam":false,"sunrise":false,"sunset":false,"publicHolidaysExcluded":false},{"dayOfWeek":6,"startTime":"00:00","endTime":"00:00","byNotam":false,"sunrise":false,"sunset":false,"publicHolidaysExcluded":false}]},"createdBy":"OPONcQnzWGOLiJSceNaf8pvx1fA2","updatedBy":"OPONcQnzWGOLiJSceNaf8pvx1fA2"},"geometry":{"type":"Point","coordinates":[34.72327777777778,-0.09186111111111112]}}, {"type":"Feature","id":9,"properties":{"_id":"64246b8c002514465f9fcdb8","magneticDeclination":0.975,"alignedTrueNorth":false,"createdAt":"2023-03-29T16:47:08.179Z","updatedAt":"2023-03-29T16:47:08.181Z","name":"LANET","identifier":"NAK","type":7,"country":"KE","channel":"98X","frequency":{"value":"115.100","unit":2},"elevation":{"value":1896,"unit":0,"referenceDatum":1},"elevationGeoid":{"geoidHeight":-13.957066166666664,"hae":1882.0429338333333},"range":{"value":200,"unit":2},"hoursOfOperation":{"operatingHours":[{"dayOfWeek":0,"startTime":"00:00","endTime":"00:00","byNotam":false,"sunrise":false,"sunset":false,"publicHolidaysExcluded":false},{"dayOfWeek":1,"startTime":"00:00","endTime":"00:00","byNotam":false,"sunrise":false,"sunset":false,"publicHolidaysExcluded":false},{"dayOfWeek":2,"startTime":"00:00","endTime":"00:00","byNotam":false,"sunrise":false,"sunset":false,"publicHolidaysExcluded":false},{"dayOfWeek":3,"startTime":"00:00","endTime":"00:00","byNotam":false,"sunrise":false,"sunset":false,"publicHolidaysExcluded":false},{"dayOfWeek":4,"startTime":"00:00","endTime":"00:00","byNotam":false,"sunrise":false,"sunset":false,"publicHolidaysExcluded":false},{"dayOfWeek":5,"startTime":"00:00","endTime":"00:00","byNotam":false,"sunrise":false,"sunset":false,"publicHolidaysExcluded":false},{"dayOfWeek":6,"startTime":"00:00","endTime":"00:00","byNotam":false,"sunrise":false,"sunset":false,"publicHolidaysExcluded":false}]},"createdBy":"OPONcQnzWGOLiJSceNaf8pvx1fA2","updatedBy":"OPONcQnzWGOLiJSceNaf8pvx1fA2"},"geometry":{"type":"Point","coordinates":[36.155277777777776,-0.3047222222222222]}}, {"type":"Feature","id":10,"properties":{"_id":"64246b90002514465f9fcdc6","magneticDeclination":-0.935,"alignedTrueNorth":false,"createdAt":"2023-03-29T16:47:12.001Z","updatedAt":"2023-03-29T16:47:12.003Z","name":"MALINDI","identifier":"MLD","type":7,"country":"KE","channel":"80X","frequency":{"value":"113.300","unit":2},"elevation":{"value":12,"unit":0,"referenceDatum":1},"elevationGeoid":{"geoidHeight":-30.20298905099999,"hae":-18.20298905099999},"range":{"value":200,"unit":2},"hoursOfOperation":{"operatingHours":[{"dayOfWeek":0,"startTime":"00:00","endTime":"00:00","byNotam":false,"sunrise":false,"sunset":false,"publicHolidaysExcluded":false},{"dayOfWeek":1,"startTime":"00:00","endTime":"00:00","byNotam":false,"sunrise":false,"sunset":false,"publicHolidaysExcluded":false},{"dayOfWeek":2,"startTime":"00:00","endTime":"00:00","byNotam":false,"sunrise":false,"sunset":false,"publicHolidaysExcluded":false},{"dayOfWeek":3,"startTime":"00:00","endTime":"00:00","byNotam":false,"sunrise":false,"sunset":false,"publicHolidaysExcluded":false},{"dayOfWeek":4,"startTime":"00:00","endTime":"00:00","byNotam":false,"sunrise":false,"sunset":false,"publicHolidaysExcluded":false},{"dayOfWeek":5,"startTime":"00:00","endTime":"00:00","byNotam":false,"sunrise":false,"sunset":false,"publicHolidaysExcluded":false},{"dayOfWeek":6,"startTime":"00:00","endTime":"00:00","byNotam":false,"sunrise":false,"sunset":false,"publicHolidaysExcluded":false}]},"createdBy":"OPONcQnzWGOLiJSceNaf8pvx1fA2","updatedBy":"OPONcQnzWGOLiJSceNaf8pvx1fA2"},"geometry":{"type":"Point","coordinates":[40.102583333333335,-3.233527777777778]}}, {"type":"Feature","id":11,"properties":{"_id":"64246b95002514465f9fcdd4","magneticDeclination":-1.107,"alignedTrueNorth":false,"createdAt":"2023-03-29T16:47:17.239Z","updatedAt":"2023-03-29T16:47:17.241Z","name":"MOVEX","identifier":"MOV","type":7,"country":"KE","channel":"70X","frequency":{"value":"112.300","unit":2},"elevation":{"value":45,"unit":0,"referenceDatum":1},"elevationGeoid":{"geoidHeight":-28.68237828600003,"hae":16.31762171399997},"range":{"value":200,"unit":2},"hoursOfOperation":{"operatingHours":[{"dayOfWeek":0,"startTime":"00:00","endTime":"00:00","byNotam":false,"sunrise":false,"sunset":false,"publicHolidaysExcluded":false},{"dayOfWeek":1,"startTime":"00:00","endTime":"00:00","byNotam":false,"sunrise":false,"sunset":false,"publicHolidaysExcluded":false},{"dayOfWeek":2,"startTime":"00:00","endTime":"00:00","byNotam":false,"sunrise":false,"sunset":false,"publicHolidaysExcluded":false},{"dayOfWeek":3,"startTime":"00:00","endTime":"00:00","byNotam":false,"sunrise":false,"sunset":false,"publicHolidaysExcluded":false},{"dayOfWeek":4,"startTime":"00:00","endTime":"00:00","byNotam":false,"sunrise":false,"sunset":false,"publicHolidaysExcluded":false},{"dayOfWeek":5,"startTime":"00:00","endTime":"00:00","byNotam":false,"sunrise":false,"sunset":false,"publicHolidaysExcluded":false},{"dayOfWeek":6,"startTime":"00:00","endTime":"00:00","byNotam":false,"sunrise":false,"sunset":false,"publicHolidaysExcluded":false}]},"createdBy":"OPONcQnzWGOLiJSceNaf8pvx1fA2","updatedBy":"OPONcQnzWGOLiJSceNaf8pvx1fA2"},"geometry":{"type":"Point","coordinates":[39.642722222222226,-3.9485277777777776]}}]}