{ "type": "FeatureCollection", "features": [{"type":"Feature","id":1,"properties":{"_id":"6947eaf4e58b7c689d8ffc7d","createdBy":"eBT9qSrxquPVguazo7MwJzzaf2p1","createdAt":"2025-12-21T12:41:24.520Z","updatedBy":"eBT9qSrxquPVguazo7MwJzzaf2p1","updatedAt":"2025-12-22T14:17:00.056Z","name":"JUBA TMA T1","dataIngestion":true,"type":7,"icaoClass":4,"activity":0,"onDemand":false,"onRequest":false,"byNotam":false,"specialAgreement":false,"requestCompliance":false,"country":"SS","upperLimit":{"value":245,"unit":6,"referenceDatum":2},"lowerLimit":{"value":140,"unit":6,"referenceDatum":2},"hoursOfOperation":{"operatingHours":[{"dayOfWeek":0,"startTime":"00:00","endTime":"00:00","byNotam":false,"sunrise":false,"sunset":false,"publicHolidaysExcluded":false},{"dayOfWeek":1,"startTime":"00:00","endTime":"00:00","byNotam":false,"sunrise":false,"sunset":false,"publicHolidaysExcluded":false},{"dayOfWeek":2,"startTime":"00:00","endTime":"00:00","byNotam":false,"sunrise":false,"sunset":false,"publicHolidaysExcluded":false},{"dayOfWeek":3,"startTime":"00:00","endTime":"00:00","byNotam":false,"sunrise":false,"sunset":false,"publicHolidaysExcluded":false},{"dayOfWeek":4,"startTime":"00:00","endTime":"00:00","byNotam":false,"sunrise":false,"sunset":false,"publicHolidaysExcluded":false},{"dayOfWeek":5,"startTime":"00:00","endTime":"00:00","byNotam":false,"sunrise":false,"sunset":false,"publicHolidaysExcluded":false},{"dayOfWeek":6,"startTime":"00:00","endTime":"00:00","byNotam":false,"sunrise":false,"sunset":false,"publicHolidaysExcluded":false}]},"deletable":true},"geometry":{"type":"Polygon","coordinates":[[[33.02167,4],[33.03972,4.02972],[33.05694,4.05972],[33.07389,4.09028],[33.09,4.12083],[33.10528,4.15194],[33.12028,4.18333],[33.13444,4.215],[33.14778,4.24694],[33.16056,4.27944],[33.17278,4.31194],[33.18417,4.34472],[33.195,4.3775],[33.205,4.41083],[33.21444,4.44417],[33.22306,4.47778],[33.23111,4.51167],[33.23833,4.54556],[33.245,4.57972],[33.25083,4.61389],[33.25611,4.64806],[33.26028,4.6825],[33.26417,4.71694],[33.26722,4.75167],[33.26944,4.78611],[33.27083,4.82083],[33.27167,4.85556],[33.27167,4.89028],[33.27111,4.925],[33.26972,4.95972],[33.26778,4.99417],[33.265,5.02889],[33.26139,5.06333],[33.25722,5.09778],[33.25222,5.13194],[33.24639,5.16639],[33.24,5.20028],[33.23306,5.23444],[33.225,5.26806],[33.21667,5.30167],[33.20722,5.33528],[33.1975,5.36861],[33.18694,5.40167],[33.17556,5.43444],[33.16361,5.46694],[33.15083,5.49917],[33.1375,5.53139],[33.12361,5.56306],[33.10889,5.59444],[33.09361,5.62556],[33.0775,5.65639],[33.06083,5.68694],[33.04361,5.71722],[33.02583,5.74694],[33.00722,5.77639],[32.98806,5.80528],[32.96833,5.83389],[32.94806,5.86194],[32.92722,5.88972],[32.90583,5.91722],[32.88361,5.94417],[32.86111,5.97056],[32.83778,5.99639],[32.81417,6.02194],[32.79,6.04667],[32.76528,6.07111],[32.74,6.095],[32.71417,6.11861],[32.68806,6.14139],[32.66111,6.16361],[32.63417,6.18556],[32.60639,6.20667],[32.57833,6.22722],[32.54972,6.24722],[32.52083,6.26667],[32.49167,6.28556],[32.46194,6.30361],[32.43194,6.32111],[32.40139,6.33806],[32.37056,6.35444],[32.33944,6.37028],[32.30806,6.38528],[32.27611,6.39944],[32.24417,6.41333],[32.21167,6.42639],[32.17917,6.43861],[32.14639,6.45028],[32.11333,6.46139],[32.08,6.47167],[32.04639,6.48111],[32.0125,6.49028],[31.97861,6.49833],[31.94472,6.50583],[31.91028,6.51278],[31.87611,6.51889],[31.84139,6.52417],[31.80694,6.52889],[31.77222,6.53278],[31.7375,6.53611],[31.7025,6.53833],[31.66778,6.54028],[31.63278,6.54139],[31.59806,6.54167],[31.56306,6.54111],[31.52806,6.54],[31.49333,6.53833],[31.45833,6.53556],[31.42361,6.5325],[31.38917,6.52833],[31.35444,6.52361],[31.32,6.51833],[31.28556,6.51194],[31.25139,6.50528],[31.21722,6.4975],[31.18333,6.48917],[31.14972,6.48028],[31.11611,6.47056],[31.08278,6.46028],[31.04972,6.44917],[31.01694,6.4375],[30.98444,6.425],[30.95194,6.41194],[30.92,6.39806],[30.88833,6.38361],[30.85694,6.36861],[30.82583,6.35278],[30.795,6.33639],[30.76444,6.31944],[30.73444,6.30194],[30.70472,6.28361],[30.67556,6.26472],[30.64667,6.24528],[30.61833,6.225],[30.59028,6.20444],[30.5625,6.18333],[30.53556,6.16139],[30.50889,6.13917],[30.4825,6.11611],[30.45694,6.09278],[30.43167,6.06889],[30.40694,6.04417],[30.38278,6.01917],[30.35917,5.99389],[30.33611,5.96778],[30.31361,5.94139],[30.29139,5.91444],[30.27,5.88694],[30.24917,5.85917],[30.22889,5.83111],[30.20944,5.8025],[30.19028,5.77333],[30.17194,5.74389],[30.15389,5.71417],[30.13694,5.68389],[30.12028,5.65333],[30.10444,5.6225],[30.08917,5.59139],[30.07444,5.55972],[30.06056,5.52806],[30.04722,5.49583],[30.03472,5.46361],[30.02278,5.43111],[30.01167,5.39806],[30.00111,5.365],[29.99111,5.33194],[29.98194,5.29833],[29.97361,5.26472],[29.96583,5.23083],[29.95889,5.19694],[29.9525,5.16278],[29.94694,5.12861],[29.94194,5.09417],[29.93778,5.05972],[29.93444,5.02528],[29.93167,4.99083],[29.92972,4.95611],[29.92833,4.92139],[29.92778,4.88667],[29.92806,4.85194],[29.92889,4.8175],[29.93056,4.78278],[29.93306,4.74806],[29.93611,4.71361],[29.93972,4.67917],[29.94444,4.64472],[29.94944,4.61028],[29.95556,4.57611],[29.96222,4.54222],[29.96944,4.50833],[29.9775,4.47444],[29.98639,4.44083],[29.99583,4.4075],[30.00611,4.37444],[30.01694,4.34139],[30.02833,4.30861],[30.04056,4.27639],[30.05361,4.24417],[30.06694,4.21222],[30.08139,4.18056],[30.09611,4.14917],[30.11167,4.11833],[30.11528,4.11833],[30.11667,4.11778],[30.12,4.11556],[30.1225,4.11194],[30.12639,4.11083],[30.13278,4.11],[30.1375,4.10917],[30.14111,4.10917],[30.14472,4.11],[30.1475,4.10972],[30.15167,4.11139],[30.15417,4.11278],[30.15611,4.11417],[30.15806,4.11667],[30.15889,4.11806],[30.15944,4.11944],[30.15972,4.12028],[30.16056,4.12],[30.16139,4.11972],[30.16194,4.11889],[30.16306,4.11528],[30.16361,4.10944],[30.16361,4.1075],[30.16556,4.09861],[30.16667,4.09722],[30.16806,4.09639],[30.16833,4.095],[30.16778,4.09333],[30.16667,4.09194],[30.16611,4.08889],[30.16472,4.08639],[30.16472,4.08417],[30.16361,4.08056],[30.16417,4.07833],[30.16389,4.07472],[30.16417,4.07278],[30.16889,4.06889],[30.16972,4.06667],[30.16972,4.06222],[30.16944,4.06083],[30.1675,4.05722],[30.16583,4.05639],[30.16278,4.05417],[30.16167,4.0525],[30.16111,4.04889],[30.16278,4.04528],[30.16583,4.04222],[30.1675,4.04083],[30.16889,4.04028],[30.17028,4.04028],[30.17167,4.04083],[30.17361,4.04111],[30.175,4.04056],[30.18389,4.03167],[30.18611,4.03056],[30.19222,4.02778],[30.195,4.02417],[30.19556,4.02139],[30.19528,4.01778],[30.19583,4.01361],[30.19694,4.01056],[30.19778,4.00861],[30.19944,4.00639],[30.20194,4.00167],[30.20222,4],[33.02167,4]]]}}, {"type":"Feature","id":2,"properties":{"_id":"6947eaf4e58b7c689d8ffc82","createdBy":"eBT9qSrxquPVguazo7MwJzzaf2p1","createdAt":"2025-12-21T12:41:24.554Z","updatedBy":"eBT9qSrxquPVguazo7MwJzzaf2p1","updatedAt":"2025-12-21T12:45:05.686Z","name":"JUBA TMA T2","dataIngestion":true,"type":7,"icaoClass":4,"activity":0,"onDemand":false,"onRequest":false,"byNotam":false,"specialAgreement":false,"requestCompliance":false,"country":"SS","upperLimit":{"value":140,"unit":6,"referenceDatum":2},"lowerLimit":{"value":60,"unit":6,"referenceDatum":2},"hoursOfOperation":{"operatingHours":[{"dayOfWeek":0,"startTime":"00:00","endTime":"00:00","byNotam":false,"sunrise":false,"sunset":false,"publicHolidaysExcluded":false},{"dayOfWeek":1,"startTime":"00:00","endTime":"00:00","byNotam":false,"sunrise":false,"sunset":false,"publicHolidaysExcluded":false},{"dayOfWeek":2,"startTime":"00:00","endTime":"00:00","byNotam":false,"sunrise":false,"sunset":false,"publicHolidaysExcluded":false},{"dayOfWeek":3,"startTime":"00:00","endTime":"00:00","byNotam":false,"sunrise":false,"sunset":false,"publicHolidaysExcluded":false},{"dayOfWeek":4,"startTime":"00:00","endTime":"00:00","byNotam":false,"sunrise":false,"sunset":false,"publicHolidaysExcluded":false},{"dayOfWeek":5,"startTime":"00:00","endTime":"00:00","byNotam":false,"sunrise":false,"sunset":false,"publicHolidaysExcluded":false},{"dayOfWeek":6,"startTime":"00:00","endTime":"00:00","byNotam":false,"sunrise":false,"sunset":false,"publicHolidaysExcluded":false}]},"deletable":true},"geometry":{"type":"Polygon","coordinates":[[[31.59972,5.708601],[31.573433,5.708189],[31.547171,5.706955],[31.520962,5.7049],[31.494831,5.702025],[31.468804,5.698335],[31.442906,5.693831],[31.417164,5.688519],[31.391603,5.682404],[31.366247,5.675492],[31.341124,5.66779],[31.316256,5.659305],[31.291669,5.650047],[31.267388,5.640023],[31.243436,5.629245],[31.219836,5.617722],[31.196613,5.605467],[31.173789,5.59249],[31.151387,5.578806],[31.129429,5.564427],[31.107936,5.549369],[31.08693,5.533645],[31.066432,5.517272],[31.046462,5.500265],[31.02704,5.482642],[31.008184,5.464419],[30.989914,5.445615],[30.972247,5.426249],[30.955201,5.40634],[30.938793,5.385907],[30.923038,5.364971],[30.907953,5.343552],[30.893552,5.321671],[30.879849,5.299351],[30.866858,5.276613],[30.854591,5.253479],[30.843061,5.229973],[30.832279,5.206118],[30.822255,5.181937],[30.813,5.157455],[30.804522,5.132695],[30.796829,5.107682],[30.78993,5.08244],[30.78383,5.056995],[30.778537,5.031372],[30.774054,5.005596],[30.770386,4.979692],[30.767537,4.953686],[30.765509,4.927604],[30.764305,4.901471],[30.763925,4.875314],[30.76437,4.849157],[30.765639,4.823028],[30.767731,4.79695],[30.770644,4.770952],[30.774374,4.745057],[30.778918,4.719292],[30.784272,4.693681],[30.790429,4.668251],[30.797385,4.643026],[30.805131,4.618031],[30.81366,4.593291],[30.822965,4.56883],[30.833034,4.544672],[30.84386,4.520841],[30.855429,4.497361],[30.867733,4.474254],[30.880757,4.451544],[30.894489,4.429253],[30.908916,4.407402],[30.924024,4.386013],[30.939796,4.365108],[30.956219,4.344707],[30.973275,4.32483],[30.990948,4.305496],[31.009221,4.286725],[31.028074,4.268535],[31.047491,4.250944],[31.06745,4.233969],[31.087934,4.217627],[31.108922,4.201934],[31.130392,4.186906],[31.152324,4.172558],[31.174697,4.158902],[31.197488,4.145954],[31.220675,4.133725],[31.244234,4.122228],[31.268143,4.111474],[31.292379,4.101473],[31.316917,4.092236],[31.341733,4.083771],[31.366803,4.076088],[31.392102,4.069192],[31.417605,4.063092],[31.443287,4.057793],[31.469124,4.0533],[31.495089,4.049618],[31.521156,4.046751],[31.547301,4.044701],[31.573498,4.04347],[31.59972,4.043059],[31.625942,4.04347],[31.652139,4.044701],[31.678284,4.046751],[31.704351,4.049618],[31.730316,4.0533],[31.756153,4.057793],[31.781835,4.063092],[31.807338,4.069192],[31.832637,4.076088],[31.857707,4.083771],[31.882523,4.092236],[31.907061,4.101473],[31.931297,4.111474],[31.955206,4.122228],[31.978765,4.133725],[32.001952,4.145954],[32.024743,4.158902],[32.047116,4.172558],[32.069048,4.186906],[32.090518,4.201934],[32.111506,4.217627],[32.13199,4.233969],[32.151949,4.250944],[32.171366,4.268535],[32.190219,4.286725],[32.208492,4.305496],[32.226165,4.32483],[32.243221,4.344707],[32.259644,4.365108],[32.275416,4.386013],[32.290524,4.407402],[32.304951,4.429253],[32.318683,4.451544],[32.331707,4.474254],[32.344011,4.497361],[32.35558,4.520841],[32.366406,4.544672],[32.376475,4.56883],[32.38578,4.593291],[32.394309,4.618031],[32.402055,4.643026],[32.409011,4.668251],[32.415168,4.693681],[32.420522,4.719292],[32.425066,4.745057],[32.428796,4.770952],[32.431709,4.79695],[32.433801,4.823028],[32.43507,4.849157],[32.435515,4.875314],[32.435135,4.901471],[32.433931,4.927604],[32.431903,4.953686],[32.429054,4.979692],[32.425386,5.005596],[32.420903,5.031372],[32.41561,5.056995],[32.40951,5.08244],[32.402611,5.107682],[32.394918,5.132695],[32.38644,5.157455],[32.377185,5.181937],[32.367161,5.206118],[32.356379,5.229973],[32.344849,5.253479],[32.332582,5.276613],[32.319591,5.299351],[32.305888,5.321671],[32.291487,5.343552],[32.276402,5.364971],[32.260647,5.385907],[32.244239,5.40634],[32.227193,5.426249],[32.209526,5.445615],[32.191256,5.464419],[32.1724,5.482642],[32.152978,5.500265],[32.133008,5.517272],[32.11251,5.533645],[32.091504,5.549369],[32.070011,5.564427],[32.048053,5.578806],[32.025651,5.59249],[32.002827,5.605467],[31.979604,5.617722],[31.956004,5.629245],[31.932052,5.640023],[31.907771,5.650047],[31.883184,5.659305],[31.858316,5.66779],[31.833193,5.675492],[31.807837,5.682404],[31.782276,5.688519],[31.756534,5.693831],[31.730636,5.698335],[31.704609,5.702025],[31.678478,5.7049],[31.652269,5.706955],[31.626007,5.708189],[31.59972,5.708601]]]}}, {"type":"Feature","id":3,"properties":{"_id":"6947eaf4e58b7c689d8ffc86","createdBy":"eBT9qSrxquPVguazo7MwJzzaf2p1","createdAt":"2025-12-21T12:41:24.605Z","updatedBy":"eBT9qSrxquPVguazo7MwJzzaf2p1","updatedAt":"2025-12-21T12:45:05.822Z","name":"HJP1","dataIngestion":true,"type":3,"icaoClass":8,"activity":0,"onDemand":false,"onRequest":false,"byNotam":false,"specialAgreement":false,"requestCompliance":false,"country":"SS","upperLimit":{"value":3000,"unit":1,"referenceDatum":1},"lowerLimit":{"value":0,"unit":1,"referenceDatum":0},"hoursOfOperation":{"operatingHours":[{"dayOfWeek":0,"startTime":"00:00","endTime":"00:00","byNotam":false,"sunrise":false,"sunset":false,"publicHolidaysExcluded":false},{"dayOfWeek":1,"startTime":"00:00","endTime":"00:00","byNotam":false,"sunrise":false,"sunset":false,"publicHolidaysExcluded":false},{"dayOfWeek":2,"startTime":"00:00","endTime":"00:00","byNotam":false,"sunrise":false,"sunset":false,"publicHolidaysExcluded":false},{"dayOfWeek":3,"startTime":"00:00","endTime":"00:00","byNotam":false,"sunrise":false,"sunset":false,"publicHolidaysExcluded":false},{"dayOfWeek":4,"startTime":"00:00","endTime":"00:00","byNotam":false,"sunrise":false,"sunset":false,"publicHolidaysExcluded":false},{"dayOfWeek":5,"startTime":"00:00","endTime":"00:00","byNotam":false,"sunrise":false,"sunset":false,"publicHolidaysExcluded":false},{"dayOfWeek":6,"startTime":"00:00","endTime":"00:00","byNotam":false,"sunrise":false,"sunset":false,"publicHolidaysExcluded":false}]},"deletable":true},"geometry":{"type":"Polygon","coordinates":[[[31.59028,4.859438],[31.588457,4.859237],[31.586721,4.858645],[31.585157,4.85769],[31.58384,4.856418],[31.582833,4.854891],[31.582185,4.853181],[31.581926,4.851372],[31.58207,4.849549],[31.58261,4.847803],[31.583519,4.846215],[31.584753,4.844863],[31.586254,4.843812],[31.587948,4.843113],[31.589755,4.842799],[31.591587,4.842885],[31.593357,4.843367],[31.594978,4.844222],[31.596372,4.845409],[31.597474,4.846871],[31.598229,4.848537],[31.598601,4.850326],[31.598572,4.852154],[31.598144,4.853931],[31.597337,4.855572],[31.59619,4.856999],[31.594758,4.858141],[31.593111,4.858945],[31.59028,4.859438]]]}}, {"type":"Feature","id":4,"properties":{"_id":"6947eaf4e58b7c689d8ffc89","createdBy":"eBT9qSrxquPVguazo7MwJzzaf2p1","createdAt":"2025-12-21T12:41:24.618Z","updatedBy":"eBT9qSrxquPVguazo7MwJzzaf2p1","updatedAt":"2025-12-21T12:45:05.951Z","name":"HJR1","dataIngestion":true,"type":1,"icaoClass":8,"activity":0,"onDemand":false,"onRequest":false,"byNotam":false,"specialAgreement":false,"requestCompliance":false,"country":"SS","upperLimit":{"value":3000,"unit":1,"referenceDatum":1},"lowerLimit":{"value":0,"unit":1,"referenceDatum":0},"hoursOfOperation":{"operatingHours":[{"dayOfWeek":0,"startTime":"00:00","endTime":"00:00","byNotam":false,"sunrise":false,"sunset":false,"publicHolidaysExcluded":false},{"dayOfWeek":1,"startTime":"00:00","endTime":"00:00","byNotam":false,"sunrise":false,"sunset":false,"publicHolidaysExcluded":false},{"dayOfWeek":2,"startTime":"00:00","endTime":"00:00","byNotam":false,"sunrise":false,"sunset":false,"publicHolidaysExcluded":false},{"dayOfWeek":3,"startTime":"00:00","endTime":"00:00","byNotam":false,"sunrise":false,"sunset":false,"publicHolidaysExcluded":false},{"dayOfWeek":4,"startTime":"00:00","endTime":"00:00","byNotam":false,"sunrise":false,"sunset":false,"publicHolidaysExcluded":false},{"dayOfWeek":5,"startTime":"00:00","endTime":"00:00","byNotam":false,"sunrise":false,"sunset":false,"publicHolidaysExcluded":false},{"dayOfWeek":6,"startTime":"00:00","endTime":"00:00","byNotam":false,"sunrise":false,"sunset":false,"publicHolidaysExcluded":false}]},"deletable":true},"geometry":{"type":"Polygon","coordinates":[[[31.59889,4.920268],[31.597067,4.920067],[31.595331,4.919475],[31.593767,4.91852],[31.59245,4.917248],[31.591443,4.915721],[31.590794,4.914011],[31.590536,4.912202],[31.59068,4.910379],[31.591219,4.908633],[31.592128,4.907045],[31.593363,4.905693],[31.594863,4.904642],[31.596558,4.903943],[31.598365,4.903629],[31.600198,4.903715],[31.601967,4.904197],[31.603588,4.905052],[31.604983,4.906239],[31.606084,4.907701],[31.606839,4.909367],[31.607211,4.911156],[31.607183,4.912984],[31.606754,4.914761],[31.605947,4.916402],[31.6048,4.917829],[31.603369,4.918971],[31.601721,4.919775],[31.59889,4.920268]]]}}, {"type":"Feature","id":5,"properties":{"_id":"6947eaf4e58b7c689d8ffc8c","createdBy":"eBT9qSrxquPVguazo7MwJzzaf2p1","createdAt":"2025-12-21T12:41:24.632Z","updatedBy":"eBT9qSrxquPVguazo7MwJzzaf2p1","updatedAt":"2025-12-21T12:45:06.071Z","name":"CTR HJJJ","dataIngestion":true,"type":4,"icaoClass":3,"activity":0,"onDemand":false,"onRequest":false,"byNotam":false,"specialAgreement":false,"requestCompliance":false,"country":"SS","upperLimit":{"value":6000,"unit":1,"referenceDatum":1},"lowerLimit":{"value":0,"unit":1,"referenceDatum":0},"hoursOfOperation":{"operatingHours":[{"dayOfWeek":0,"startTime":"00:00","endTime":"00:00","byNotam":false,"sunrise":false,"sunset":false,"publicHolidaysExcluded":false},{"dayOfWeek":1,"startTime":"00:00","endTime":"00:00","byNotam":false,"sunrise":false,"sunset":false,"publicHolidaysExcluded":false},{"dayOfWeek":2,"startTime":"00:00","endTime":"00:00","byNotam":false,"sunrise":false,"sunset":false,"publicHolidaysExcluded":false},{"dayOfWeek":3,"startTime":"00:00","endTime":"00:00","byNotam":false,"sunrise":false,"sunset":false,"publicHolidaysExcluded":false},{"dayOfWeek":4,"startTime":"00:00","endTime":"00:00","byNotam":false,"sunrise":false,"sunset":false,"publicHolidaysExcluded":false},{"dayOfWeek":5,"startTime":"00:00","endTime":"00:00","byNotam":false,"sunrise":false,"sunset":false,"publicHolidaysExcluded":false},{"dayOfWeek":6,"startTime":"00:00","endTime":"00:00","byNotam":false,"sunrise":false,"sunset":false,"publicHolidaysExcluded":false}]},"deletable":true},"geometry":{"type":"Polygon","coordinates":[[[31.59972,5.292215],[31.586585,5.29201],[31.573463,5.291393],[31.560367,5.290366],[31.54731,5.28893],[31.534305,5.287086],[31.521365,5.284835],[31.508502,5.282181],[31.495729,5.279126],[31.483059,5.275672],[31.470504,5.271823],[31.458077,5.267584],[31.445791,5.262957],[31.433656,5.257949],[31.421685,5.252563],[31.409891,5.246805],[31.398284,5.240681],[31.386876,5.234196],[31.375679,5.227358],[31.364703,5.220172],[31.35396,5.212647],[31.343459,5.204789],[31.333212,5.196607],[31.323228,5.188108],[31.313517,5.1793],[31.30409,5.170193],[31.294954,5.160795],[31.286119,5.151117],[31.277595,5.141166],[31.269388,5.130953],[31.261508,5.120489],[31.253963,5.109784],[31.246758,5.098847],[31.239903,5.08769],[31.233403,5.076325],[31.227264,5.064761],[31.221494,5.053011],[31.216097,5.041087],[31.211079,5.028999],[31.206445,5.01676],[31.202199,5.004382],[31.198346,4.991878],[31.194889,4.979259],[31.191831,4.966538],[31.189177,4.953728],[31.186927,4.940841],[31.185085,4.927889],[31.183653,4.914887],[31.182631,4.901846],[31.182021,4.88878],[31.181822,4.875701],[31.182037,4.862622],[31.182663,4.849557],[31.183701,4.836517],[31.18515,4.823517],[31.187007,4.810568],[31.189272,4.797683],[31.191942,4.784876],[31.195013,4.772159],[31.198484,4.759544],[31.202351,4.747044],[31.20661,4.734671],[31.211256,4.722438],[31.216286,4.710356],[31.221694,4.698437],[31.227474,4.686694],[31.233621,4.675137],[31.24013,4.663778],[31.246993,4.652629],[31.254204,4.6417],[31.261755,4.631002],[31.269639,4.620545],[31.277849,4.610341],[31.286376,4.600398],[31.295212,4.590727],[31.304349,4.581338],[31.313776,4.572239],[31.323485,4.56344],[31.333466,4.554948],[31.34371,4.546774],[31.354206,4.538924],[31.364944,4.531406],[31.375914,4.524228],[31.387104,4.517397],[31.398503,4.51092],[31.410101,4.504802],[31.421885,4.499051],[31.433845,4.493671],[31.445968,4.488668],[31.458243,4.484047],[31.470657,4.479812],[31.483198,4.475968],[31.495854,4.472518],[31.508612,4.469467],[31.52146,4.466816],[31.534385,4.464568],[31.547375,4.462726],[31.560416,4.461291],[31.573496,4.460266],[31.586601,4.45965],[31.59972,4.459445],[31.612839,4.45965],[31.625944,4.460266],[31.639024,4.461291],[31.652065,4.462726],[31.665055,4.464568],[31.67798,4.466816],[31.690828,4.469467],[31.703586,4.472518],[31.716242,4.475968],[31.728783,4.479812],[31.741197,4.484047],[31.753472,4.488668],[31.765595,4.493671],[31.777555,4.499051],[31.789339,4.504802],[31.800937,4.51092],[31.812336,4.517397],[31.823526,4.524228],[31.834496,4.531406],[31.845234,4.538924],[31.85573,4.546774],[31.865974,4.554948],[31.875955,4.56344],[31.885664,4.572239],[31.895091,4.581338],[31.904228,4.590727],[31.913064,4.600398],[31.921591,4.610341],[31.929801,4.620545],[31.937685,4.631002],[31.945236,4.6417],[31.952447,4.652629],[31.95931,4.663778],[31.965819,4.675137],[31.971966,4.686694],[31.977746,4.698437],[31.983154,4.710356],[31.988184,4.722438],[31.99283,4.734671],[31.997089,4.747044],[32.000956,4.759544],[32.004427,4.772159],[32.007498,4.784876],[32.010168,4.797683],[32.012433,4.810568],[32.01429,4.823517],[32.015739,4.836517],[32.016777,4.849557],[32.017403,4.862622],[32.017618,4.875701],[32.017419,4.88878],[32.016809,4.901846],[32.015787,4.914887],[32.014355,4.927889],[32.012513,4.940841],[32.010263,4.953728],[32.007609,4.966538],[32.004551,4.979259],[32.001094,4.991878],[31.997241,5.004382],[31.992995,5.01676],[31.988361,5.028999],[31.983343,5.041087],[31.977946,5.053011],[31.972176,5.064761],[31.966037,5.076325],[31.959537,5.08769],[31.952682,5.098847],[31.945477,5.109784],[31.937932,5.120489],[31.930052,5.130953],[31.921845,5.141166],[31.913321,5.151117],[31.904486,5.160795],[31.89535,5.170193],[31.885923,5.1793],[31.876212,5.188108],[31.866228,5.196607],[31.855981,5.204789],[31.84548,5.212647],[31.834737,5.220172],[31.823761,5.227358],[31.812564,5.234196],[31.801156,5.240681],[31.789549,5.246805],[31.777755,5.252563],[31.765784,5.257949],[31.753649,5.262957],[31.741363,5.267584],[31.728936,5.271823],[31.716381,5.275672],[31.703711,5.279126],[31.690938,5.282181],[31.678075,5.284835],[31.665135,5.287086],[31.65213,5.28893],[31.639073,5.290366],[31.625977,5.291393],[31.612855,5.29201],[31.59972,5.292215]]]}}]}