{ "type": "FeatureCollection", "features": [{"type":"Feature","id":1,"properties":{"_id":"6778d3f8a0370cd8fcc25847","createdBy":"eBT9qSrxquPVguazo7MwJzzaf2p1","createdAt":"2025-01-04T06:23:52.628Z","updatedBy":"eBT9qSrxquPVguazo7MwJzzaf2p1","updatedAt":"2025-01-04T06:25:08.846Z","name":"ELDORET CTR","dataIngestion":true,"type":4,"icaoClass":3,"activity":0,"onDemand":false,"onRequest":false,"byNotam":false,"specialAgreement":false,"requestCompliance":false,"country":"KE","upperLimit":{"value":10000,"unit":1,"referenceDatum":0},"lowerLimit":{"value":0,"unit":1,"referenceDatum":0},"hoursOfOperation":{"operatingHours":[{"dayOfWeek":0,"startTime":"00:00","endTime":"00:00","byNotam":false,"sunrise":false,"sunset":false,"publicHolidaysExcluded":false},{"dayOfWeek":1,"startTime":"00:00","endTime":"00:00","byNotam":false,"sunrise":false,"sunset":false,"publicHolidaysExcluded":false},{"dayOfWeek":2,"startTime":"00:00","endTime":"00:00","byNotam":false,"sunrise":false,"sunset":false,"publicHolidaysExcluded":false},{"dayOfWeek":3,"startTime":"00:00","endTime":"00:00","byNotam":false,"sunrise":false,"sunset":false,"publicHolidaysExcluded":false},{"dayOfWeek":4,"startTime":"00:00","endTime":"00:00","byNotam":false,"sunrise":false,"sunset":false,"publicHolidaysExcluded":false},{"dayOfWeek":5,"startTime":"00:00","endTime":"00:00","byNotam":false,"sunrise":false,"sunset":false,"publicHolidaysExcluded":false},{"dayOfWeek":6,"startTime":"00:00","endTime":"00:00","byNotam":false,"sunrise":false,"sunset":false,"publicHolidaysExcluded":false}]},"deletable":true},"geometry":{"type":"Polygon","coordinates":[[[35.23669,0.65383],[35.22885,0.65371],[35.22101,0.65334],[35.21318,0.65272],[35.20538,0.65186],[35.19761,0.65076],[35.18988,0.64941],[35.18219,0.64781],[35.17456,0.64598],[35.16699,0.64391],[35.15949,0.6416],[35.15206,0.63906],[35.14472,0.63629],[35.13747,0.63328],[35.13032,0.63005],[35.12327,0.6266],[35.11633,0.62293],[35.10951,0.61904],[35.10282,0.61494],[35.09626,0.61063],[35.08984,0.60612],[35.08356,0.6014],[35.07744,0.5965],[35.07147,0.5914],[35.06566,0.58612],[35.06003,0.58066],[35.05457,0.57502],[35.04928,0.56921],[35.04419,0.56325],[35.03928,0.55712],[35.03457,0.55084],[35.03005,0.54442],[35.02575,0.53786],[35.02165,0.53117],[35.01776,0.52435],[35.01408,0.51742],[35.01063,0.51037],[35.0074,0.50322],[35.0044,0.49597],[35.00162,0.48862],[34.99908,0.4812],[34.99677,0.4737],[34.9947,0.46613],[34.99287,0.4585],[34.99128,0.45081],[34.98993,0.44308],[34.98883,0.43531],[34.98797,0.42751],[34.98735,0.41968],[34.98698,0.41184],[34.98686,0.404],[34.98698,0.39615],[34.98735,0.38831],[34.98797,0.38049],[34.98883,0.37268],[34.98993,0.36491],[34.99128,0.35718],[34.99288,0.3495],[34.99471,0.34187],[34.99678,0.3343],[34.99909,0.32679],[35.00163,0.31937],[35.0044,0.31203],[35.00741,0.30478],[35.01064,0.29762],[35.01409,0.29058],[35.01776,0.28364],[35.02165,0.27682],[35.02575,0.27013],[35.03006,0.26357],[35.03457,0.25715],[35.03929,0.25087],[35.04419,0.24475],[35.04929,0.23878],[35.05457,0.23298],[35.06004,0.22734],[35.06567,0.22188],[35.07148,0.2166],[35.07745,0.2115],[35.08357,0.20659],[35.08985,0.20188],[35.09627,0.19737],[35.10283,0.19306],[35.10952,0.18896],[35.11634,0.18507],[35.12327,0.1814],[35.13032,0.17795],[35.13747,0.17472],[35.14473,0.17171],[35.15207,0.16894],[35.15949,0.1664],[35.16699,0.16409],[35.17456,0.16202],[35.1822,0.16019],[35.18988,0.15859],[35.19761,0.15724],[35.20538,0.15614],[35.21318,0.15528],[35.22101,0.15466],[35.22885,0.15429],[35.23669,0.15417],[35.24454,0.15429],[35.25238,0.15466],[35.26021,0.15528],[35.26801,0.15614],[35.27578,0.15724],[35.28351,0.15859],[35.29119,0.16019],[35.29883,0.16202],[35.3064,0.16409],[35.3139,0.1664],[35.32132,0.16894],[35.32866,0.17171],[35.33591,0.17472],[35.34307,0.17795],[35.35012,0.1814],[35.35705,0.18507],[35.36387,0.18896],[35.37056,0.19306],[35.37712,0.19737],[35.38354,0.20188],[35.38982,0.20659],[35.39594,0.2115],[35.40191,0.2166],[35.40772,0.22188],[35.41335,0.22734],[35.41881,0.23298],[35.4241,0.23878],[35.42919,0.24475],[35.4341,0.25087],[35.43881,0.25715],[35.44333,0.26357],[35.44764,0.27013],[35.45174,0.27682],[35.45563,0.28364],[35.4593,0.29058],[35.46275,0.29762],[35.46598,0.30478],[35.46898,0.31203],[35.47176,0.31937],[35.4743,0.32679],[35.47661,0.3343],[35.47868,0.34187],[35.48051,0.3495],[35.48211,0.35718],[35.48345,0.36491],[35.48456,0.37268],[35.48542,0.38049],[35.48604,0.38831],[35.48641,0.39615],[35.48653,0.404],[35.48641,0.41184],[35.48604,0.41968],[35.48542,0.42751],[35.48456,0.43531],[35.48346,0.44308],[35.48211,0.45081],[35.48052,0.4585],[35.47868,0.46613],[35.47661,0.4737],[35.47431,0.4812],[35.47176,0.48862],[35.46899,0.49597],[35.46599,0.50322],[35.46276,0.51037],[35.4593,0.51742],[35.45563,0.52435],[35.45174,0.53117],[35.44764,0.53786],[35.44333,0.54442],[35.43882,0.55084],[35.43411,0.55712],[35.4292,0.56325],[35.4241,0.56921],[35.41882,0.57502],[35.41336,0.58066],[35.40772,0.58612],[35.40192,0.5914],[35.39595,0.5965],[35.38983,0.6014],[35.38355,0.60612],[35.37713,0.61063],[35.37057,0.61494],[35.36388,0.61904],[35.35706,0.62293],[35.35012,0.6266],[35.34307,0.63005],[35.33592,0.63328],[35.32867,0.63629],[35.32133,0.63906],[35.3139,0.6416],[35.3064,0.64391],[35.29883,0.64598],[35.2912,0.64781],[35.28351,0.64941],[35.27578,0.65076],[35.26801,0.65186],[35.26021,0.65272],[35.25238,0.65334],[35.24454,0.65371],[35.23669,0.65383]]]}}, {"type":"Feature","id":2,"properties":{"_id":"6778d3f8a0370cd8fcc2584a","createdBy":"eBT9qSrxquPVguazo7MwJzzaf2p1","createdAt":"2025-01-04T06:23:52.688Z","updatedBy":"eBT9qSrxquPVguazo7MwJzzaf2p1","updatedAt":"2025-01-04T06:25:09.552Z","name":"ELDORET TMA","dataIngestion":true,"type":7,"icaoClass":4,"activity":0,"onDemand":false,"onRequest":false,"byNotam":false,"specialAgreement":false,"requestCompliance":false,"country":"KE","upperLimit":{"value":145,"unit":6,"referenceDatum":2},"lowerLimit":{"value":1500,"unit":1,"referenceDatum":0},"hoursOfOperation":{"operatingHours":[{"dayOfWeek":0,"startTime":"00:00","endTime":"00:00","byNotam":false,"sunrise":false,"sunset":false,"publicHolidaysExcluded":false},{"dayOfWeek":1,"startTime":"00:00","endTime":"00:00","byNotam":false,"sunrise":false,"sunset":false,"publicHolidaysExcluded":false},{"dayOfWeek":2,"startTime":"00:00","endTime":"00:00","byNotam":false,"sunrise":false,"sunset":false,"publicHolidaysExcluded":false},{"dayOfWeek":3,"startTime":"00:00","endTime":"00:00","byNotam":false,"sunrise":false,"sunset":false,"publicHolidaysExcluded":false},{"dayOfWeek":4,"startTime":"00:00","endTime":"00:00","byNotam":false,"sunrise":false,"sunset":false,"publicHolidaysExcluded":false},{"dayOfWeek":5,"startTime":"00:00","endTime":"00:00","byNotam":false,"sunrise":false,"sunset":false,"publicHolidaysExcluded":false},{"dayOfWeek":6,"startTime":"00:00","endTime":"00:00","byNotam":false,"sunrise":false,"sunset":false,"publicHolidaysExcluded":false}]},"deletable":true},"geometry":{"type":"Polygon","coordinates":[[[34.79232,1.22556],[33.96743,-0.43599],[35.23278,-0.43279],[35.25878,-0.43109],[35.28508,-0.4298],[35.31132,-0.42769],[35.33749,-0.42476],[35.36355,-0.42101],[35.38949,-0.41644],[35.41526,-0.41106],[35.44086,-0.40487],[35.46624,-0.39788],[35.4914,-0.39009],[35.5163,-0.38152],[35.54091,-0.37217],[35.56522,-0.36206],[35.5892,-0.35118],[35.61283,-0.33956],[35.63608,-0.3272],[35.65893,-0.31412],[35.68136,-0.30032],[35.70334,-0.28583],[35.72486,-0.27065],[35.74589,-0.25481],[35.76641,-0.23831],[35.78641,-0.22118],[35.80585,-0.20343],[35.82473,-0.18507],[35.84303,-0.16613],[35.86071,-0.14663],[35.87778,-0.12658],[35.89421,-0.106],[35.90999,-0.08492],[35.92509,-0.06335],[35.93951,-0.04132],[35.95324,-0.01885],[35.96624,0.00404],[35.97853,0.02733],[35.99007,0.051],[36.00087,0.07501],[36.01091,0.09936],[36.02018,0.124],[36.02867,0.14893],[36.03637,0.17411],[36.04328,0.19951],[36.04938,0.22513],[36.05468,0.25092],[36.05917,0.27687],[36.06284,0.30294],[36.06569,0.32912],[36.06771,0.35537],[36.06891,0.38167],[36.06928,0.408],[36.06883,0.43433],[36.06755,0.46063],[36.06544,0.48687],[36.06251,0.51304],[36.05876,0.5391],[36.05419,0.56504],[36.04881,0.59081],[36.04263,0.6164],[36.03564,0.64179],[36.02786,0.66695],[36.01929,0.69184],[36.00995,0.71646],[35.99983,0.74077],[35.98896,0.76475],[35.97734,0.78838],[35.96498,0.81163],[35.9519,0.83449],[35.9381,0.85692],[35.92361,0.8789],[35.90844,0.90042],[35.89259,0.92145],[35.8761,0.94198],[35.85896,0.96197],[35.84121,0.98142],[35.82286,1.0003],[35.80392,1.0186],[35.78441,1.03629],[35.76436,1.05336],[35.74378,1.06979],[35.7227,1.08557],[35.70113,1.10067],[35.67909,1.1151],[35.65662,1.12882],[35.63372,1.14183],[35.61042,1.15411],[35.58676,1.16566],[35.56274,1.17646],[35.53839,1.1865],[35.51374,1.19576],[35.48881,1.20425],[35.46362,1.21196],[35.43821,1.21886],[35.41259,1.22497],[35.38679,1.23027],[35.36084,1.23475],[35.33476,1.23842],[35.30858,1.24127],[35.28232,1.24329],[35.25601,1.24449],[35.22967,1.24486],[34.79232,1.22556]]]}}, {"type":"Feature","id":3,"properties":{"_id":"6778d3f8a0370cd8fcc2584d","createdBy":"eBT9qSrxquPVguazo7MwJzzaf2p1","createdAt":"2025-01-04T06:23:52.710Z","updatedBy":"eBT9qSrxquPVguazo7MwJzzaf2p1","updatedAt":"2025-01-04T06:25:09.694Z","name":"EMBU CTR","dataIngestion":true,"type":4,"icaoClass":3,"activity":0,"onDemand":false,"onRequest":false,"byNotam":false,"specialAgreement":false,"requestCompliance":false,"country":"KE","upperLimit":{"value":9000,"unit":1,"referenceDatum":0},"lowerLimit":{"value":0,"unit":1,"referenceDatum":0},"hoursOfOperation":{"operatingHours":[{"dayOfWeek":0,"startTime":"00:00","endTime":"00:00","byNotam":false,"sunrise":false,"sunset":false,"publicHolidaysExcluded":false},{"dayOfWeek":1,"startTime":"00:00","endTime":"00:00","byNotam":false,"sunrise":false,"sunset":false,"publicHolidaysExcluded":false},{"dayOfWeek":2,"startTime":"00:00","endTime":"00:00","byNotam":false,"sunrise":false,"sunset":false,"publicHolidaysExcluded":false},{"dayOfWeek":3,"startTime":"00:00","endTime":"00:00","byNotam":false,"sunrise":false,"sunset":false,"publicHolidaysExcluded":false},{"dayOfWeek":4,"startTime":"00:00","endTime":"00:00","byNotam":false,"sunrise":false,"sunset":false,"publicHolidaysExcluded":false},{"dayOfWeek":5,"startTime":"00:00","endTime":"00:00","byNotam":false,"sunrise":false,"sunset":false,"publicHolidaysExcluded":false},{"dayOfWeek":6,"startTime":"00:00","endTime":"00:00","byNotam":false,"sunrise":false,"sunset":false,"publicHolidaysExcluded":false}]},"deletable":true},"geometry":{"type":"Polygon","coordinates":[[[37.49484,-0.32251],[37.48699,-0.32263],[37.47915,-0.323],[37.47133,-0.32362],[37.46353,-0.32448],[37.45576,-0.32558],[37.44802,-0.32693],[37.44034,-0.32852],[37.43271,-0.33036],[37.42514,-0.33243],[37.41764,-0.33473],[37.41021,-0.33728],[37.40287,-0.34005],[37.39562,-0.34305],[37.38846,-0.34628],[37.38142,-0.34974],[37.37448,-0.35341],[37.36766,-0.3573],[37.36097,-0.3614],[37.35441,-0.36571],[37.34799,-0.37022],[37.34171,-0.37493],[37.33559,-0.37984],[37.32962,-0.38494],[37.32381,-0.39022],[37.31818,-0.39568],[37.31272,-0.40132],[37.30743,-0.40712],[37.30234,-0.41309],[37.29743,-0.41921],[37.29272,-0.42549],[37.2882,-0.43191],[37.28389,-0.43847],[37.27979,-0.44516],[37.2759,-0.45198],[37.27223,-0.45891],[37.26878,-0.46596],[37.26555,-0.47311],[37.26254,-0.48037],[37.25977,-0.48771],[37.25723,-0.49513],[37.25492,-0.50263],[37.25285,-0.5102],[37.25101,-0.51783],[37.24942,-0.52552],[37.24807,-0.53325],[37.24697,-0.54102],[37.24611,-0.54882],[37.24549,-0.55665],[37.24512,-0.56449],[37.245,-0.57233],[37.24512,-0.58018],[37.24549,-0.58802],[37.2461,-0.59584],[37.24696,-0.60365],[37.24807,-0.61142],[37.24942,-0.61915],[37.25101,-0.62683],[37.25284,-0.63446],[37.25491,-0.64203],[37.25722,-0.64954],[37.25976,-0.65696],[37.26254,-0.6643],[37.26554,-0.67155],[37.26877,-0.67871],[37.27222,-0.68576],[37.27589,-0.69269],[37.27978,-0.69951],[37.28388,-0.7062],[37.28819,-0.71276],[37.29271,-0.71918],[37.29742,-0.72546],[37.30233,-0.73158],[37.30742,-0.73755],[37.3127,-0.74336],[37.31817,-0.74899],[37.3238,-0.75446],[37.32961,-0.75974],[37.33558,-0.76483],[37.3417,-0.76974],[37.34798,-0.77445],[37.3544,-0.77897],[37.36096,-0.78328],[37.36765,-0.78738],[37.37447,-0.79127],[37.38141,-0.79494],[37.38846,-0.79839],[37.39561,-0.80162],[37.40286,-0.80463],[37.4102,-0.8074],[37.41763,-0.80994],[37.42513,-0.81225],[37.4327,-0.81432],[37.44033,-0.81615],[37.44802,-0.81774],[37.45575,-0.81909],[37.46352,-0.8202],[37.47133,-0.82106],[37.47915,-0.82168],[37.48699,-0.82205],[37.49484,-0.82217],[37.50269,-0.82205],[37.51053,-0.82168],[37.51835,-0.82106],[37.52615,-0.8202],[37.53392,-0.81909],[37.54166,-0.81774],[37.54934,-0.81615],[37.55698,-0.81432],[37.56455,-0.81225],[37.57205,-0.80994],[37.57947,-0.8074],[37.58682,-0.80463],[37.59407,-0.80162],[37.60122,-0.79839],[37.60827,-0.79494],[37.61521,-0.79127],[37.62203,-0.78738],[37.62872,-0.78328],[37.63528,-0.77897],[37.6417,-0.77445],[37.64798,-0.76974],[37.6541,-0.76483],[37.66007,-0.75974],[37.66587,-0.75446],[37.67151,-0.74899],[37.67697,-0.74336],[37.68226,-0.73755],[37.68735,-0.73158],[37.69226,-0.72546],[37.69697,-0.71918],[37.70149,-0.71276],[37.70579,-0.7062],[37.70989,-0.69951],[37.71378,-0.69269],[37.71746,-0.68576],[37.72091,-0.67871],[37.72414,-0.67155],[37.72714,-0.6643],[37.72992,-0.65696],[37.73246,-0.64954],[37.73477,-0.64203],[37.73684,-0.63446],[37.73867,-0.62683],[37.74026,-0.61915],[37.74161,-0.61142],[37.74271,-0.60365],[37.74357,-0.59584],[37.74419,-0.58802],[37.74456,-0.58018],[37.74468,-0.57233],[37.74456,-0.56449],[37.74419,-0.55665],[37.74357,-0.54882],[37.74271,-0.54102],[37.7416,-0.53325],[37.74026,-0.52552],[37.73866,-0.51783],[37.73683,-0.5102],[37.73476,-0.50263],[37.73245,-0.49513],[37.72991,-0.48771],[37.72713,-0.48037],[37.72413,-0.47311],[37.7209,-0.46596],[37.71745,-0.45891],[37.71377,-0.45198],[37.70989,-0.44516],[37.70578,-0.43847],[37.70148,-0.43191],[37.69696,-0.42549],[37.69225,-0.41921],[37.68734,-0.41309],[37.68224,-0.40712],[37.67696,-0.40132],[37.6715,-0.39568],[37.66586,-0.39022],[37.66006,-0.38494],[37.65409,-0.37984],[37.64797,-0.37493],[37.64169,-0.37022],[37.63527,-0.36571],[37.62871,-0.3614],[37.62202,-0.3573],[37.6152,-0.35341],[37.60826,-0.34974],[37.60121,-0.34628],[37.59406,-0.34305],[37.58681,-0.34005],[37.57947,-0.33728],[37.57204,-0.33473],[37.56454,-0.33243],[37.55697,-0.33036],[37.54934,-0.32852],[37.54165,-0.32693],[37.53392,-0.32558],[37.52615,-0.32448],[37.51835,-0.32362],[37.51053,-0.323],[37.50269,-0.32263],[37.49484,-0.32251]]]}}, {"type":"Feature","id":4,"properties":{"_id":"6778d3f8a0370cd8fcc25850","createdBy":"eBT9qSrxquPVguazo7MwJzzaf2p1","createdAt":"2025-01-04T06:23:52.731Z","updatedBy":"eBT9qSrxquPVguazo7MwJzzaf2p1","updatedAt":"2025-01-04T06:25:09.850Z","name":"HKD13","dataIngestion":true,"type":2,"icaoClass":8,"activity":0,"onDemand":false,"onRequest":false,"byNotam":false,"specialAgreement":false,"requestCompliance":false,"country":"KE","upperLimit":{"value":9000,"unit":1,"referenceDatum":0},"lowerLimit":{"value":0,"unit":1,"referenceDatum":0},"frequencies":[{"value":"124.300","primary":true,"unit":2,"name":"EASTLEIGH TWR","_id":"6778d3f8a0370cd8fcc25851"}],"hoursOfOperation":{"operatingHours":[{"dayOfWeek":0,"startTime":"00:00","endTime":"00:00","byNotam":false,"sunrise":false,"sunset":false,"publicHolidaysExcluded":false},{"dayOfWeek":1,"startTime":"00:00","endTime":"00:00","byNotam":false,"sunrise":false,"sunset":false,"publicHolidaysExcluded":false},{"dayOfWeek":2,"startTime":"00:00","endTime":"00:00","byNotam":false,"sunrise":false,"sunset":false,"publicHolidaysExcluded":false},{"dayOfWeek":3,"startTime":"00:00","endTime":"00:00","byNotam":false,"sunrise":false,"sunset":false,"publicHolidaysExcluded":false},{"dayOfWeek":4,"startTime":"00:00","endTime":"00:00","byNotam":false,"sunrise":false,"sunset":false,"publicHolidaysExcluded":false},{"dayOfWeek":5,"startTime":"00:00","endTime":"00:00","byNotam":false,"sunrise":false,"sunset":false,"publicHolidaysExcluded":false},{"dayOfWeek":6,"startTime":"00:00","endTime":"00:00","byNotam":false,"sunrise":false,"sunset":false,"publicHolidaysExcluded":false}]},"deletable":true},"geometry":{"type":"Polygon","coordinates":[[[36.86792,-1.26503],[37.20086,-1.01931],[37.16753,-0.75264],[36.81725,-1.05261],[36.86792,-1.26503]]]}}, {"type":"Feature","id":5,"properties":{"_id":"6778d3f8a0370cd8fcc25854","createdBy":"eBT9qSrxquPVguazo7MwJzzaf2p1","createdAt":"2025-01-04T06:23:52.748Z","updatedBy":"eBT9qSrxquPVguazo7MwJzzaf2p1","updatedAt":"2025-01-04T06:25:09.968Z","name":"HKP24","dataIngestion":true,"type":3,"icaoClass":8,"activity":0,"onDemand":false,"onRequest":false,"byNotam":false,"specialAgreement":false,"requestCompliance":false,"country":"KE","upperLimit":{"value":20000,"unit":1,"referenceDatum":0},"lowerLimit":{"value":0,"unit":1,"referenceDatum":0},"hoursOfOperation":{"operatingHours":[{"dayOfWeek":0,"startTime":"00:00","endTime":"00:00","byNotam":false,"sunrise":false,"sunset":false,"publicHolidaysExcluded":false},{"dayOfWeek":1,"startTime":"00:00","endTime":"00:00","byNotam":false,"sunrise":false,"sunset":false,"publicHolidaysExcluded":false},{"dayOfWeek":2,"startTime":"00:00","endTime":"00:00","byNotam":false,"sunrise":false,"sunset":false,"publicHolidaysExcluded":false},{"dayOfWeek":3,"startTime":"00:00","endTime":"00:00","byNotam":false,"sunrise":false,"sunset":false,"publicHolidaysExcluded":false},{"dayOfWeek":4,"startTime":"00:00","endTime":"00:00","byNotam":false,"sunrise":false,"sunset":false,"publicHolidaysExcluded":false},{"dayOfWeek":5,"startTime":"00:00","endTime":"00:00","byNotam":false,"sunrise":false,"sunset":false,"publicHolidaysExcluded":false},{"dayOfWeek":6,"startTime":"00:00","endTime":"00:00","byNotam":false,"sunrise":false,"sunset":false,"publicHolidaysExcluded":false}]},"deletable":true},"geometry":{"type":"Polygon","coordinates":[[[36.61725,-1.15261],[36.78417,-1.33594],[36.95058,-1.11928],[36.71725,-1.03594],[36.61725,-1.15261]]]}}, {"type":"Feature","id":6,"properties":{"_id":"6778d3f8a0370cd8fcc25857","createdBy":"eBT9qSrxquPVguazo7MwJzzaf2p1","createdAt":"2025-01-04T06:23:52.763Z","updatedBy":"eBT9qSrxquPVguazo7MwJzzaf2p1","updatedAt":"2025-01-04T06:25:10.111Z","name":"HKP3","dataIngestion":true,"type":3,"icaoClass":8,"activity":0,"onDemand":false,"onRequest":false,"byNotam":false,"specialAgreement":false,"requestCompliance":false,"country":"KE","upperLimit":{"value":9000,"unit":1,"referenceDatum":0},"lowerLimit":{"value":0,"unit":1,"referenceDatum":0},"hoursOfOperation":{"operatingHours":[{"dayOfWeek":0,"startTime":"00:00","endTime":"00:00","byNotam":false,"sunrise":false,"sunset":false,"publicHolidaysExcluded":false},{"dayOfWeek":1,"startTime":"00:00","endTime":"00:00","byNotam":false,"sunrise":false,"sunset":false,"publicHolidaysExcluded":false},{"dayOfWeek":2,"startTime":"00:00","endTime":"00:00","byNotam":false,"sunrise":false,"sunset":false,"publicHolidaysExcluded":false},{"dayOfWeek":3,"startTime":"00:00","endTime":"00:00","byNotam":false,"sunrise":false,"sunset":false,"publicHolidaysExcluded":false},{"dayOfWeek":4,"startTime":"00:00","endTime":"00:00","byNotam":false,"sunrise":false,"sunset":false,"publicHolidaysExcluded":false},{"dayOfWeek":5,"startTime":"00:00","endTime":"00:00","byNotam":false,"sunrise":false,"sunset":false,"publicHolidaysExcluded":false},{"dayOfWeek":6,"startTime":"00:00","endTime":"00:00","byNotam":false,"sunrise":false,"sunset":false,"publicHolidaysExcluded":false}]},"deletable":true},"geometry":{"type":"Polygon","coordinates":[[[36.80058,-1.25262],[36.79954,-1.25266],[36.7985,-1.25275],[36.79746,-1.25292],[36.79695,-1.25302],[36.79594,-1.25328],[36.79544,-1.25344],[36.79445,-1.25379],[36.79397,-1.25399],[36.79302,-1.25444],[36.79256,-1.25468],[36.79166,-1.25522],[36.79122,-1.2555],[36.79037,-1.25612],[36.78996,-1.25644],[36.78918,-1.25714],[36.7888,-1.2575],[36.78809,-1.25826],[36.78742,-1.25907],[36.7868,-1.25992],[36.78652,-1.26035],[36.78598,-1.26125],[36.78574,-1.26172],[36.78529,-1.26266],[36.78509,-1.26315],[36.78474,-1.26413],[36.78459,-1.26463],[36.78433,-1.26564],[36.78422,-1.26616],[36.78406,-1.26719],[36.784,-1.26771],[36.78393,-1.26875],[36.78392,-1.26928],[36.78396,-1.27032],[36.78406,-1.27137],[36.78422,-1.2724],[36.78433,-1.27291],[36.78459,-1.27392],[36.78474,-1.27442],[36.78509,-1.27541],[36.78529,-1.27589],[36.78574,-1.27684],[36.78598,-1.2773],[36.78652,-1.2782],[36.7868,-1.27864],[36.78742,-1.27949],[36.78775,-1.27989],[36.78844,-1.28068],[36.7888,-1.28105],[36.78957,-1.28177],[36.79037,-1.28244],[36.79122,-1.28305],[36.79166,-1.28334],[36.79256,-1.28387],[36.79302,-1.28412],[36.79397,-1.28456],[36.79445,-1.28476],[36.79544,-1.28512],[36.79594,-1.28527],[36.79695,-1.28553],[36.79746,-1.28564],[36.7985,-1.2858],[36.79902,-1.28586],[36.80006,-1.28592],[36.80058,-1.28593],[36.80111,-1.28592],[36.80215,-1.28586],[36.80267,-1.2858],[36.80371,-1.28564],[36.80422,-1.28553],[36.80523,-1.28527],[36.80573,-1.28512],[36.80672,-1.28476],[36.8072,-1.28456],[36.80815,-1.28412],[36.80861,-1.28387],[36.80951,-1.28334],[36.80995,-1.28305],[36.81079,-1.28244],[36.8116,-1.28177],[36.81236,-1.28105],[36.81273,-1.28068],[36.81342,-1.27989],[36.81375,-1.27949],[36.81436,-1.27864],[36.81465,-1.2782],[36.81518,-1.2773],[36.81543,-1.27684],[36.81587,-1.27589],[36.81607,-1.27541],[36.81643,-1.27442],[36.81658,-1.27392],[36.81684,-1.27291],[36.81695,-1.2724],[36.81711,-1.27137],[36.81721,-1.27032],[36.81724,-1.26928],[36.81723,-1.26875],[36.81717,-1.26771],[36.81711,-1.26719],[36.81695,-1.26616],[36.81684,-1.26564],[36.81658,-1.26463],[36.81643,-1.26413],[36.81607,-1.26315],[36.81587,-1.26266],[36.81543,-1.26172],[36.81518,-1.26125],[36.81465,-1.26035],[36.81436,-1.25992],[36.81375,-1.25907],[36.81308,-1.25826],[36.81236,-1.2575],[36.81199,-1.25714],[36.8112,-1.25644],[36.81079,-1.25612],[36.80995,-1.2555],[36.80951,-1.25522],[36.80861,-1.25468],[36.80815,-1.25444],[36.8072,-1.25399],[36.80672,-1.25379],[36.80573,-1.25344],[36.80523,-1.25328],[36.80422,-1.25302],[36.8037,-1.25292],[36.80267,-1.25275],[36.80163,-1.25266],[36.80058,-1.25262]]]}}, {"type":"Feature","id":7,"properties":{"_id":"6778d3f8a0370cd8fcc2585a","createdBy":"eBT9qSrxquPVguazo7MwJzzaf2p1","createdAt":"2025-01-04T06:23:52.800Z","updatedBy":"eBT9qSrxquPVguazo7MwJzzaf2p1","updatedAt":"2025-01-04T06:25:10.366Z","name":"KISUMU CTR","dataIngestion":true,"type":4,"icaoClass":3,"activity":0,"onDemand":false,"onRequest":false,"byNotam":false,"specialAgreement":false,"requestCompliance":false,"country":"KE","upperLimit":{"value":9000,"unit":1,"referenceDatum":0},"lowerLimit":{"value":0,"unit":1,"referenceDatum":0},"hoursOfOperation":{"operatingHours":[{"dayOfWeek":0,"startTime":"00:00","endTime":"00:00","byNotam":false,"sunrise":false,"sunset":false,"publicHolidaysExcluded":false},{"dayOfWeek":1,"startTime":"00:00","endTime":"00:00","byNotam":false,"sunrise":false,"sunset":false,"publicHolidaysExcluded":false},{"dayOfWeek":2,"startTime":"00:00","endTime":"00:00","byNotam":false,"sunrise":false,"sunset":false,"publicHolidaysExcluded":false},{"dayOfWeek":3,"startTime":"00:00","endTime":"00:00","byNotam":false,"sunrise":false,"sunset":false,"publicHolidaysExcluded":false},{"dayOfWeek":4,"startTime":"00:00","endTime":"00:00","byNotam":false,"sunrise":false,"sunset":false,"publicHolidaysExcluded":false},{"dayOfWeek":5,"startTime":"00:00","endTime":"00:00","byNotam":false,"sunrise":false,"sunset":false,"publicHolidaysExcluded":false},{"dayOfWeek":6,"startTime":"00:00","endTime":"00:00","byNotam":false,"sunrise":false,"sunset":false,"publicHolidaysExcluded":false}]},"deletable":true},"geometry":{"type":"Polygon","coordinates":[[[34.73911,0.15547],[34.73126,0.15535],[34.72342,0.15498],[34.7156,0.15436],[34.7078,0.1535],[34.70003,0.15239],[34.6923,0.15104],[34.68461,0.14945],[34.67698,0.14762],[34.66941,0.14555],[34.66191,0.14324],[34.65448,0.1407],[34.64714,0.13793],[34.63989,0.13492],[34.63274,0.13169],[34.62569,0.12824],[34.61875,0.12457],[34.61194,0.12068],[34.60524,0.11658],[34.59869,0.11227],[34.59226,0.10776],[34.58599,0.10304],[34.57986,0.09814],[34.57389,0.09304],[34.56809,0.08776],[34.56245,0.0823],[34.55699,0.07666],[34.55171,0.07086],[34.54661,0.06489],[34.54171,0.05876],[34.53699,0.05249],[34.53248,0.04607],[34.52817,0.03951],[34.52407,0.03281],[34.52018,0.026],[34.51651,0.01906],[34.51306,0.01201],[34.50983,0.00486],[34.50682,-0.00239],[34.50405,-0.00973],[34.50151,-0.01716],[34.4992,-0.02466],[34.49713,-0.03223],[34.4953,-0.03986],[34.49371,-0.04755],[34.49236,-0.05528],[34.49125,-0.06305],[34.49039,-0.07085],[34.48977,-0.07867],[34.4894,-0.08651],[34.48928,-0.09436],[34.4894,-0.10221],[34.48977,-0.11005],[34.49039,-0.11787],[34.49125,-0.12567],[34.49236,-0.13344],[34.4937,-0.14117],[34.4953,-0.14886],[34.49713,-0.15649],[34.4992,-0.16406],[34.50151,-0.17156],[34.50405,-0.17899],[34.50682,-0.18633],[34.50983,-0.19358],[34.51306,-0.20073],[34.51651,-0.20778],[34.52018,-0.21472],[34.52407,-0.22153],[34.52817,-0.22823],[34.53248,-0.23479],[34.53699,-0.24121],[34.5417,-0.24748],[34.54661,-0.25361],[34.55171,-0.25958],[34.55699,-0.26538],[34.56245,-0.27102],[34.56809,-0.27648],[34.57389,-0.28176],[34.57986,-0.28686],[34.58599,-0.29177],[34.59226,-0.29648],[34.59868,-0.30099],[34.60524,-0.3053],[34.61194,-0.3094],[34.61875,-0.31329],[34.62569,-0.31696],[34.63274,-0.32041],[34.63989,-0.32364],[34.64714,-0.32665],[34.65448,-0.32942],[34.66191,-0.33196],[34.66941,-0.33427],[34.67698,-0.33634],[34.68461,-0.33818],[34.6923,-0.33977],[34.70003,-0.34112],[34.7078,-0.34222],[34.7156,-0.34308],[34.72342,-0.3437],[34.73126,-0.34407],[34.73911,-0.34419],[34.74696,-0.34407],[34.7548,-0.3437],[34.76262,-0.34308],[34.77042,-0.34222],[34.77819,-0.34112],[34.78593,-0.33977],[34.79361,-0.33818],[34.80124,-0.33634],[34.80881,-0.33427],[34.81631,-0.33196],[34.82374,-0.32942],[34.83108,-0.32665],[34.83833,-0.32364],[34.84549,-0.32041],[34.85253,-0.31696],[34.85947,-0.31329],[34.86629,-0.3094],[34.87298,-0.3053],[34.87954,-0.30099],[34.88596,-0.29648],[34.89224,-0.29177],[34.89836,-0.28686],[34.90433,-0.28176],[34.91013,-0.27648],[34.91577,-0.27102],[34.92123,-0.26538],[34.92651,-0.25958],[34.93161,-0.25361],[34.93652,-0.24748],[34.94123,-0.24121],[34.94574,-0.23479],[34.95005,-0.22823],[34.95415,-0.22153],[34.95804,-0.21472],[34.96171,-0.20778],[34.96517,-0.20073],[34.9684,-0.19358],[34.9714,-0.18633],[34.97417,-0.17899],[34.97672,-0.17156],[34.97902,-0.16406],[34.98109,-0.15649],[34.98293,-0.14886],[34.98452,-0.14117],[34.98587,-0.13344],[34.98697,-0.12567],[34.98783,-0.11787],[34.98845,-0.11005],[34.98882,-0.10221],[34.98894,-0.09436],[34.98882,-0.08651],[34.98845,-0.07867],[34.98783,-0.07085],[34.98697,-0.06305],[34.98587,-0.05528],[34.98452,-0.04755],[34.98293,-0.03986],[34.98109,-0.03223],[34.97902,-0.02466],[34.97671,-0.01716],[34.97417,-0.00973],[34.9714,-0.00239],[34.96839,0.00486],[34.96517,0.01201],[34.96171,0.01906],[34.95804,0.026],[34.95415,0.03281],[34.95005,0.03951],[34.94574,0.04607],[34.94123,0.05249],[34.93652,0.05876],[34.93161,0.06489],[34.92651,0.07086],[34.92123,0.07666],[34.91577,0.0823],[34.91013,0.08776],[34.90433,0.09304],[34.89836,0.09814],[34.89223,0.10304],[34.88596,0.10776],[34.87954,0.11227],[34.87298,0.11658],[34.86629,0.12068],[34.85947,0.12457],[34.85253,0.12824],[34.84548,0.13169],[34.83833,0.13492],[34.83108,0.13793],[34.82374,0.1407],[34.81631,0.14324],[34.80881,0.14555],[34.80124,0.14762],[34.79361,0.14945],[34.78592,0.15104],[34.77819,0.15239],[34.77042,0.1535],[34.76262,0.15436],[34.7548,0.15498],[34.74696,0.15535],[34.73911,0.15547]]]}}, {"type":"Feature","id":8,"properties":{"_id":"6778d3f8a0370cd8fcc2585d","createdBy":"eBT9qSrxquPVguazo7MwJzzaf2p1","createdAt":"2025-01-04T06:23:52.852Z","updatedBy":"eBT9qSrxquPVguazo7MwJzzaf2p1","updatedAt":"2025-01-04T06:25:10.542Z","name":"LOKICHOGGIO CTR","dataIngestion":true,"type":4,"icaoClass":3,"activity":0,"onDemand":false,"onRequest":false,"byNotam":false,"specialAgreement":false,"requestCompliance":false,"country":"KE","upperLimit":{"value":10500,"unit":1,"referenceDatum":1},"lowerLimit":{"value":0,"unit":1,"referenceDatum":0},"hoursOfOperation":{"operatingHours":[{"dayOfWeek":0,"startTime":"00:00","endTime":"00:00","byNotam":false,"sunrise":false,"sunset":false,"publicHolidaysExcluded":false},{"dayOfWeek":1,"startTime":"00:00","endTime":"00:00","byNotam":false,"sunrise":false,"sunset":false,"publicHolidaysExcluded":false},{"dayOfWeek":2,"startTime":"00:00","endTime":"00:00","byNotam":false,"sunrise":false,"sunset":false,"publicHolidaysExcluded":false},{"dayOfWeek":3,"startTime":"00:00","endTime":"00:00","byNotam":false,"sunrise":false,"sunset":false,"publicHolidaysExcluded":false},{"dayOfWeek":4,"startTime":"00:00","endTime":"00:00","byNotam":false,"sunrise":false,"sunset":false,"publicHolidaysExcluded":false},{"dayOfWeek":5,"startTime":"00:00","endTime":"00:00","byNotam":false,"sunrise":false,"sunset":false,"publicHolidaysExcluded":false},{"dayOfWeek":6,"startTime":"00:00","endTime":"00:00","byNotam":false,"sunrise":false,"sunset":false,"publicHolidaysExcluded":false}]},"deletable":true},"geometry":{"type":"Polygon","coordinates":[[[34.20996,4.42811],[34.13582,3.92567],[34.62947,3.92567],[34.63738,3.9258],[34.64528,3.92617],[34.65317,3.92679],[34.66103,3.92765],[34.66886,3.92876],[34.67665,3.93012],[34.6844,3.93172],[34.69209,3.93356],[34.69972,3.93564],[34.70728,3.93796],[34.71477,3.94052],[34.72217,3.94331],[34.72948,3.94633],[34.73669,3.94957],[34.74379,3.95304],[34.75078,3.95674],[34.75766,3.96065],[34.7644,3.96477],[34.77102,3.9691],[34.77749,3.97364],[34.78382,3.97837],[34.78999,3.98331],[34.79601,3.98843],[34.80186,3.99374],[34.80754,3.99923],[34.81305,4.0049],[34.81837,4.01073],[34.82351,4.01673],[34.82846,4.02289],[34.83321,4.0292],[34.83776,4.03566],[34.84211,4.04225],[34.84625,4.04898],[34.85017,4.05583],[34.85387,4.06281],[34.85735,4.06989],[34.86061,4.07709],[34.86364,4.08438],[34.86644,4.09176],[34.86901,4.09922],[34.87134,4.10677],[34.87343,4.11438],[34.87527,4.12205],[34.87688,4.12978],[34.87824,4.13755],[34.87936,4.14537],[34.88023,4.15321],[34.88086,4.16108],[34.88123,4.16896],[34.88136,4.17685],[34.88124,4.18474],[34.88087,4.19263],[34.88025,4.20049],[34.87938,4.20834],[34.87827,4.21615],[34.87691,4.22393],[34.87531,4.23165],[34.87346,4.23933],[34.87138,4.24694],[34.86905,4.25449],[34.86649,4.26195],[34.8637,4.26934],[34.86067,4.27663],[34.85742,4.28382],[34.85394,4.29091],[34.85024,4.29789],[34.84632,4.30474],[34.84218,4.31147],[34.83784,4.31807],[34.83329,4.32453],[34.82854,4.33084],[34.82359,4.337],[34.81845,4.343],[34.81313,4.34884],[34.80762,4.35451],[34.80194,4.36],[34.79609,4.36532],[34.79007,4.37044],[34.78389,4.37538],[34.77756,4.38012],[34.77109,4.38466],[34.76448,4.38899],[34.75773,4.39312],[34.75085,4.39703],[34.74386,4.40072],[34.73675,4.40419],[34.72954,4.40744],[34.72222,4.41046],[34.71482,4.41325],[34.70733,4.41581],[34.69977,4.41813],[34.69213,4.42022],[34.68443,4.42206],[34.67668,4.42366],[34.66889,4.42502],[34.66105,4.42613],[34.65318,4.427],[34.64529,4.42761],[34.63738,4.42799],[34.62947,4.42811],[34.20996,4.42811]]]}}, {"type":"Feature","id":9,"properties":{"_id":"6778d3f8a0370cd8fcc25860","createdBy":"eBT9qSrxquPVguazo7MwJzzaf2p1","createdAt":"2025-01-04T06:23:52.952Z","updatedBy":"eBT9qSrxquPVguazo7MwJzzaf2p1","updatedAt":"2025-01-04T06:25:10.664Z","name":"MALINDI CTR","dataIngestion":true,"type":4,"icaoClass":3,"activity":0,"onDemand":false,"onRequest":false,"byNotam":false,"specialAgreement":false,"requestCompliance":false,"country":"KE","upperLimit":{"value":3500,"unit":1,"referenceDatum":1},"lowerLimit":{"value":0,"unit":1,"referenceDatum":0},"hoursOfOperation":{"operatingHours":[{"dayOfWeek":0,"startTime":"00:00","endTime":"00:00","byNotam":false,"sunrise":false,"sunset":false,"publicHolidaysExcluded":false},{"dayOfWeek":1,"startTime":"00:00","endTime":"00:00","byNotam":false,"sunrise":false,"sunset":false,"publicHolidaysExcluded":false},{"dayOfWeek":2,"startTime":"00:00","endTime":"00:00","byNotam":false,"sunrise":false,"sunset":false,"publicHolidaysExcluded":false},{"dayOfWeek":3,"startTime":"00:00","endTime":"00:00","byNotam":false,"sunrise":false,"sunset":false,"publicHolidaysExcluded":false},{"dayOfWeek":4,"startTime":"00:00","endTime":"00:00","byNotam":false,"sunrise":false,"sunset":false,"publicHolidaysExcluded":false},{"dayOfWeek":5,"startTime":"00:00","endTime":"00:00","byNotam":false,"sunrise":false,"sunset":false,"publicHolidaysExcluded":false},{"dayOfWeek":6,"startTime":"00:00","endTime":"00:00","byNotam":false,"sunrise":false,"sunset":false,"publicHolidaysExcluded":false}]},"deletable":true},"geometry":{"type":"Polygon","coordinates":[[[40.10049,-2.97322],[40.09263,-2.97334],[40.08478,-2.97371],[40.07695,-2.97433],[40.06914,-2.97519],[40.06136,-2.97629],[40.05361,-2.97764],[40.04592,-2.97923],[40.03828,-2.98107],[40.0307,-2.98314],[40.02318,-2.98544],[40.01575,-2.98799],[40.0084,-2.99076],[40.00114,-2.99376],[39.99397,-2.99699],[39.98692,-3.00044],[39.97997,-3.00411],[39.97314,-3.008],[39.96644,-3.0121],[39.95987,-3.01641],[39.95344,-3.02092],[39.94715,-3.02563],[39.94102,-3.03054],[39.93504,-3.03564],[39.92923,-3.04092],[39.92358,-3.04638],[39.91811,-3.05201],[39.91282,-3.05782],[39.90772,-3.06378],[39.9028,-3.06991],[39.89808,-3.07618],[39.89356,-3.0826],[39.88925,-3.08916],[39.88514,-3.09585],[39.88124,-3.10267],[39.87756,-3.1096],[39.8741,-3.11665],[39.87087,-3.1238],[39.86786,-3.13105],[39.86508,-3.1384],[39.86253,-3.14582],[39.86022,-3.15332],[39.85814,-3.16089],[39.8563,-3.16852],[39.85471,-3.17621],[39.85335,-3.18394],[39.85225,-3.19171],[39.85138,-3.19951],[39.85076,-3.20733],[39.85039,-3.21517],[39.85026,-3.22302],[39.85039,-3.23087],[39.85075,-3.23871],[39.85137,-3.24653],[39.85223,-3.25433],[39.85334,-3.2621],[39.85469,-3.26983],[39.85628,-3.27752],[39.85811,-3.28515],[39.86018,-3.29272],[39.86249,-3.30022],[39.86504,-3.30765],[39.86782,-3.31499],[39.87082,-3.32224],[39.87406,-3.3294],[39.87751,-3.33645],[39.88119,-3.34338],[39.88508,-3.3502],[39.88919,-3.35689],[39.8935,-3.36345],[39.89802,-3.36988],[39.90274,-3.37615],[39.90766,-3.38228],[39.91276,-3.38825],[39.91805,-3.39405],[39.92352,-3.39969],[39.92917,-3.40515],[39.93498,-3.41044],[39.94096,-3.41554],[39.9471,-3.42044],[39.95338,-3.42516],[39.95981,-3.42967],[39.96638,-3.43398],[39.97309,-3.43808],[39.97992,-3.44197],[39.98687,-3.44564],[39.99393,-3.4491],[40.00109,-3.45233],[40.00836,-3.45533],[40.01571,-3.45811],[40.02315,-3.46065],[40.03066,-3.46296],[40.03825,-3.46503],[40.04589,-3.46686],[40.05359,-3.46845],[40.06134,-3.4698],[40.06912,-3.47091],[40.07694,-3.47177],[40.08478,-3.47239],[40.09263,-3.47276],[40.10049,-3.47288],[40.10835,-3.47276],[40.11621,-3.47239],[40.12405,-3.47177],[40.13186,-3.47091],[40.13965,-3.4698],[40.14739,-3.46845],[40.15509,-3.46686],[40.16274,-3.46503],[40.17032,-3.46296],[40.17783,-3.46065],[40.18527,-3.45811],[40.19263,-3.45533],[40.19989,-3.45233],[40.20706,-3.4491],[40.21412,-3.44564],[40.22107,-3.44197],[40.2279,-3.43808],[40.2346,-3.43398],[40.24117,-3.42967],[40.2476,-3.42516],[40.25389,-3.42044],[40.26002,-3.41554],[40.266,-3.41044],[40.27182,-3.40515],[40.27746,-3.39969],[40.28293,-3.39405],[40.28822,-3.38825],[40.29333,-3.38228],[40.29824,-3.37615],[40.30296,-3.36988],[40.30748,-3.36345],[40.31179,-3.35689],[40.3159,-3.3502],[40.31979,-3.34338],[40.32347,-3.33645],[40.32693,-3.3294],[40.33016,-3.32224],[40.33317,-3.31499],[40.33595,-3.30765],[40.33849,-3.30022],[40.3408,-3.29272],[40.34287,-3.28515],[40.34471,-3.27752],[40.3463,-3.26983],[40.34765,-3.2621],[40.34875,-3.25433],[40.34961,-3.24653],[40.35023,-3.23871],[40.3506,-3.23087],[40.35072,-3.22302],[40.35059,-3.21517],[40.35022,-3.20733],[40.3496,-3.19951],[40.34874,-3.19171],[40.34763,-3.18394],[40.34628,-3.17621],[40.34468,-3.16852],[40.34284,-3.16089],[40.34077,-3.15332],[40.33845,-3.14582],[40.33591,-3.1384],[40.33313,-3.13105],[40.33012,-3.1238],[40.32688,-3.11665],[40.32342,-3.1096],[40.31974,-3.10267],[40.31585,-3.09585],[40.31174,-3.08916],[40.30742,-3.0826],[40.3029,-3.07618],[40.29818,-3.06991],[40.29327,-3.06378],[40.28816,-3.05782],[40.28287,-3.05201],[40.2774,-3.04638],[40.27175,-3.04092],[40.26594,-3.03564],[40.25996,-3.03054],[40.25383,-3.02563],[40.24754,-3.02092],[40.24111,-3.01641],[40.23454,-3.0121],[40.22784,-3.008],[40.22101,-3.00411],[40.21407,-3.00044],[40.20701,-2.99699],[40.19985,-2.99376],[40.19259,-2.99076],[40.18523,-2.98799],[40.1778,-2.98544],[40.17029,-2.98314],[40.16271,-2.98107],[40.15506,-2.97923],[40.14737,-2.97764],[40.13963,-2.97629],[40.13185,-2.97519],[40.12403,-2.97433],[40.1162,-2.97371],[40.10835,-2.97334],[40.10049,-2.97322]]]}}, {"type":"Feature","id":10,"properties":{"_id":"6778d3f9a0370cd8fcc25863","createdBy":"eBT9qSrxquPVguazo7MwJzzaf2p1","createdAt":"2025-01-04T06:23:53.249Z","updatedBy":"eBT9qSrxquPVguazo7MwJzzaf2p1","updatedAt":"2025-01-04T06:25:10.783Z","name":"MOMBASA CTR","dataIngestion":true,"type":4,"icaoClass":3,"activity":0,"onDemand":false,"onRequest":false,"byNotam":false,"specialAgreement":false,"requestCompliance":false,"country":"KE","upperLimit":{"value":3500,"unit":1,"referenceDatum":1},"lowerLimit":{"value":0,"unit":1,"referenceDatum":0},"hoursOfOperation":{"operatingHours":[{"dayOfWeek":0,"startTime":"00:00","endTime":"00:00","byNotam":false,"sunrise":false,"sunset":false,"publicHolidaysExcluded":false},{"dayOfWeek":1,"startTime":"00:00","endTime":"00:00","byNotam":false,"sunrise":false,"sunset":false,"publicHolidaysExcluded":false},{"dayOfWeek":2,"startTime":"00:00","endTime":"00:00","byNotam":false,"sunrise":false,"sunset":false,"publicHolidaysExcluded":false},{"dayOfWeek":3,"startTime":"00:00","endTime":"00:00","byNotam":false,"sunrise":false,"sunset":false,"publicHolidaysExcluded":false},{"dayOfWeek":4,"startTime":"00:00","endTime":"00:00","byNotam":false,"sunrise":false,"sunset":false,"publicHolidaysExcluded":false},{"dayOfWeek":5,"startTime":"00:00","endTime":"00:00","byNotam":false,"sunrise":false,"sunset":false,"publicHolidaysExcluded":false},{"dayOfWeek":6,"startTime":"00:00","endTime":"00:00","byNotam":false,"sunrise":false,"sunset":false,"publicHolidaysExcluded":false}]},"deletable":true},"geometry":{"type":"Polygon","coordinates":[[[39.39303,-3.94678],[39.31767,-4.3018],[39.32455,-4.30761],[39.32511,-4.31533],[39.32592,-4.32303],[39.32696,-4.33069],[39.32825,-4.33833],[39.32978,-4.34592],[39.33155,-4.35346],[39.33355,-4.36093],[39.33579,-4.36835],[39.33826,-4.37568],[39.34096,-4.38294],[39.34388,-4.39011],[39.34704,-4.39718],[39.35041,-4.40416],[39.354,-4.41102],[39.35781,-4.41777],[39.36182,-4.42439],[39.36604,-4.43089],[39.37047,-4.43725],[39.37509,-4.44346],[39.37991,-4.44953],[39.38492,-4.45545],[39.39011,-4.46121],[39.39548,-4.4668],[39.40102,-4.47222],[39.40673,-4.47746],[39.41261,-4.48252],[39.41864,-4.4874],[39.42482,-4.49208],[39.43115,-4.49657],[39.43761,-4.50086],[39.44421,-4.50494],[39.45093,-4.50882],[39.45777,-4.51248],[39.46472,-4.51593],[39.47178,-4.51915],[39.47893,-4.52216],[39.48618,-4.52494],[39.49351,-4.52749],[39.50092,-4.52981],[39.5084,-4.53189],[39.51594,-4.53374],[39.52353,-4.53536],[39.53117,-4.53673],[39.53885,-4.53787],[39.54657,-4.53876],[39.55431,-4.53941],[39.56206,-4.53982],[39.56982,-4.53999],[39.57759,-4.53991],[39.58535,-4.53959],[39.59309,-4.53903],[39.60081,-4.53822],[39.60851,-4.53718],[39.61616,-4.53589],[39.62378,-4.53436],[39.63134,-4.5326],[39.63884,-4.5306],[39.64627,-4.52837],[39.65363,-4.5259],[39.66091,-4.5232],[39.6681,-4.52028],[39.6752,-4.51714],[39.68219,-4.51377],[39.68907,-4.51019],[39.69584,-4.50639],[39.70248,-4.50238],[39.70899,-4.49817],[39.71537,-4.49375],[39.72161,-4.48914],[39.72769,-4.48433],[39.73362,-4.47934],[39.7394,-4.47416],[39.745,-4.46881],[39.75043,-4.46328],[39.75569,-4.45758],[39.76077,-4.45172],[39.76565,-4.44571],[39.77035,-4.43954],[39.77485,-4.43324],[39.77915,-4.42679],[39.78324,-4.42021],[39.78712,-4.41351],[39.79079,-4.40669],[39.79425,-4.39976],[39.79748,-4.39272],[39.80049,-4.38558],[39.80327,-4.37836],[39.80583,-4.37105],[39.80815,-4.36366],[39.81024,-4.35621],[39.81209,-4.34869],[39.81371,-4.34112],[39.81509,-4.3335],[39.81622,-4.32584],[39.81712,-4.31815],[39.81777,-4.31044],[39.81818,-4.30271],[39.89422,-3.9486],[39.89239,-3.94239],[39.89207,-3.93457],[39.8915,-3.92676],[39.89069,-3.91898],[39.88964,-3.91122],[39.88834,-3.9035],[39.8868,-3.89583],[39.88502,-3.88821],[39.883,-3.88065],[39.88075,-3.87315],[39.87825,-3.86573],[39.87553,-3.85839],[39.87258,-3.85114],[39.8694,-3.84399],[39.86599,-3.83694],[39.86237,-3.83],[39.85853,-3.82317],[39.85447,-3.81647],[39.85021,-3.8099],[39.84574,-3.80347],[39.84108,-3.79718],[39.83621,-3.79104],[39.83116,-3.78506],[39.82592,-3.77923],[39.8205,-3.77358],[39.8149,-3.76809],[39.80914,-3.76279],[39.80321,-3.75766],[39.79712,-3.75273],[39.79088,-3.74799],[39.78449,-3.74345],[39.77797,-3.73911],[39.77131,-3.73497],[39.76452,-3.73105],[39.75762,-3.72734],[39.7506,-3.72385],[39.74347,-3.72058],[39.73625,-3.71754],[39.72893,-3.71472],[39.72153,-3.71213],[39.71405,-3.70978],[39.7065,-3.70767],[39.69888,-3.70579],[39.69121,-3.70415],[39.6835,-3.70275],[39.67574,-3.70159],[39.66795,-3.70068],[39.66014,-3.70001],[39.65231,-3.69959],[39.64447,-3.69941],[39.63662,-3.69948],[39.62879,-3.6998],[39.62097,-3.70036],[39.61316,-3.70116],[39.60539,-3.70221],[39.59766,-3.7035],[39.58997,-3.70504],[39.58233,-3.70681],[39.57475,-3.70882],[39.56724,-3.71107],[39.5598,-3.71356],[39.55245,-3.71627],[39.54518,-3.71922],[39.53801,-3.72239],[39.53094,-3.72578],[39.52398,-3.72939],[39.51715,-3.73322],[39.51043,-3.73726],[39.50384,-3.74151],[39.4974,-3.74597],[39.49109,-3.75062],[39.48494,-3.75547],[39.47894,-3.76051],[39.4731,-3.76574],[39.46743,-3.77115],[39.46193,-3.77673],[39.45661,-3.78248],[39.45147,-3.78839],[39.44653,-3.79447],[39.44177,-3.80069],[39.43722,-3.80706],[39.43286,-3.81357],[39.42872,-3.82022],[39.42478,-3.82699],[39.42106,-3.83388],[39.41756,-3.84088],[39.41428,-3.84799],[39.41123,-3.8552],[39.4084,-3.8625],[39.40581,-3.86988],[39.40345,-3.87735],[39.40132,-3.88488],[39.39944,-3.89248],[39.39779,-3.90013],[39.39639,-3.90783],[39.39523,-3.91557],[39.39431,-3.92334],[39.39364,-3.93114],[39.39321,-3.93895],[39.39303,-3.94678]]]}}, {"type":"Feature","id":11,"properties":{"_id":"6778d3f9a0370cd8fcc25866","createdBy":"eBT9qSrxquPVguazo7MwJzzaf2p1","createdAt":"2025-01-04T06:23:53.391Z","updatedBy":"eBT9qSrxquPVguazo7MwJzzaf2p1","updatedAt":"2025-01-04T06:25:10.923Z","name":"MOMBASA TMA","dataIngestion":true,"type":7,"icaoClass":4,"activity":0,"onDemand":false,"onRequest":false,"byNotam":false,"specialAgreement":false,"requestCompliance":false,"country":"KE","upperLimit":{"value":145,"unit":6,"referenceDatum":2},"lowerLimit":{"value":1500,"unit":1,"referenceDatum":1},"hoursOfOperation":{"operatingHours":[{"dayOfWeek":0,"startTime":"00:00","endTime":"00:00","byNotam":false,"sunrise":false,"sunset":false,"publicHolidaysExcluded":false},{"dayOfWeek":1,"startTime":"00:00","endTime":"00:00","byNotam":false,"sunrise":false,"sunset":false,"publicHolidaysExcluded":false},{"dayOfWeek":2,"startTime":"00:00","endTime":"00:00","byNotam":false,"sunrise":false,"sunset":false,"publicHolidaysExcluded":false},{"dayOfWeek":3,"startTime":"00:00","endTime":"00:00","byNotam":false,"sunrise":false,"sunset":false,"publicHolidaysExcluded":false},{"dayOfWeek":4,"startTime":"00:00","endTime":"00:00","byNotam":false,"sunrise":false,"sunset":false,"publicHolidaysExcluded":false},{"dayOfWeek":5,"startTime":"00:00","endTime":"00:00","byNotam":false,"sunrise":false,"sunset":false,"publicHolidaysExcluded":false},{"dayOfWeek":6,"startTime":"00:00","endTime":"00:00","byNotam":false,"sunrise":false,"sunset":false,"publicHolidaysExcluded":false}]},"deletable":true},"geometry":{"type":"Polygon","coordinates":[[[38.29308,-4.04174],[39.23422,-4.70233],[40.47312,-4.66781],[40.81408,-3.23924],[40.80793,-3.22075],[40.80717,-3.19864],[40.80572,-3.17656],[40.80357,-3.15454],[40.80074,-3.1326],[40.79721,-3.11075],[40.793,-3.08903],[40.7881,-3.06745],[40.78253,-3.04604],[40.77629,-3.02481],[40.76939,-3.00378],[40.76183,-2.98299],[40.75362,-2.96244],[40.74476,-2.94215],[40.73528,-2.92216],[40.72516,-2.90247],[40.71444,-2.88311],[40.70311,-2.8641],[40.69119,-2.84545],[40.67869,-2.82718],[40.66563,-2.80932],[40.652,-2.79187],[40.63784,-2.77486],[40.62315,-2.7583],[40.60794,-2.74221],[40.59224,-2.72661],[40.57605,-2.7115],[40.5594,-2.69691],[40.5423,-2.68285],[40.52476,-2.66933],[40.50681,-2.65637],[40.48846,-2.64398],[40.46973,-2.63217],[40.45064,-2.62095],[40.43121,-2.61034],[40.41145,-2.60034],[40.39139,-2.59097],[40.37104,-2.58223],[40.35043,-2.57413],[40.32957,-2.56669],[40.30849,-2.5599],[40.28721,-2.55377],[40.26575,-2.54832],[40.24412,-2.54354],[40.22236,-2.53944],[40.20048,-2.53603],[40.1785,-2.53331],[40.15645,-2.53127],[40.13434,-2.52993],[40.1122,-2.52928],[40.09006,-2.52933],[40.06792,-2.53007],[40.04582,-2.5315],[40.02378,-2.53363],[40.00181,-2.53645],[39.97994,-2.53995],[39.95819,-2.54414],[39.93659,-2.54901],[39.91515,-2.55455],[39.89389,-2.56077],[39.87284,-2.56764],[39.85202,-2.57518],[39.83144,-2.58336],[39.81113,-2.59219],[39.79111,-2.60164],[39.77139,-2.61172],[39.752,-2.62242],[39.73296,-2.63371],[39.71428,-2.6456],[39.69598,-2.65807],[39.67808,-2.67111],[39.66061,-2.6847],[39.64356,-2.69883],[39.62697,-2.71349],[39.61085,-2.72866],[39.59521,-2.74433],[39.58008,-2.76049],[39.56545,-2.77711],[39.55136,-2.79418],[39.53781,-2.81168],[39.52482,-2.8296],[39.5124,-2.84792],[39.50056,-2.86662],[38.29308,-4.04174]]]}}, {"type":"Feature","id":12,"properties":{"_id":"6778d3f9a0370cd8fcc25869","createdBy":"eBT9qSrxquPVguazo7MwJzzaf2p1","createdAt":"2025-01-04T06:23:53.410Z","updatedBy":"eBT9qSrxquPVguazo7MwJzzaf2p1","updatedAt":"2025-01-04T06:25:11.028Z","name":"NAIROBI CTR","dataIngestion":true,"type":4,"icaoClass":2,"activity":0,"onDemand":false,"onRequest":false,"byNotam":false,"specialAgreement":false,"requestCompliance":false,"country":"KE","upperLimit":{"value":9000,"unit":1,"referenceDatum":0},"lowerLimit":{"value":0,"unit":1,"referenceDatum":0},"hoursOfOperation":{"operatingHours":[{"dayOfWeek":0,"startTime":"00:00","endTime":"00:00","byNotam":false,"sunrise":false,"sunset":false,"publicHolidaysExcluded":false},{"dayOfWeek":1,"startTime":"00:00","endTime":"00:00","byNotam":false,"sunrise":false,"sunset":false,"publicHolidaysExcluded":false},{"dayOfWeek":2,"startTime":"00:00","endTime":"00:00","byNotam":false,"sunrise":false,"sunset":false,"publicHolidaysExcluded":false},{"dayOfWeek":3,"startTime":"00:00","endTime":"00:00","byNotam":false,"sunrise":false,"sunset":false,"publicHolidaysExcluded":false},{"dayOfWeek":4,"startTime":"00:00","endTime":"00:00","byNotam":false,"sunrise":false,"sunset":false,"publicHolidaysExcluded":false},{"dayOfWeek":5,"startTime":"00:00","endTime":"00:00","byNotam":false,"sunrise":false,"sunset":false,"publicHolidaysExcluded":false},{"dayOfWeek":6,"startTime":"00:00","endTime":"00:00","byNotam":false,"sunrise":false,"sunset":false,"publicHolidaysExcluded":false}]},"deletable":true},"geometry":{"type":"Polygon","coordinates":[[[36.87475,-1.06945],[36.8669,-1.06957],[36.85906,-1.06994],[36.85123,-1.07056],[36.84343,-1.07142],[36.83566,-1.07252],[36.82793,-1.07387],[36.82024,-1.07546],[36.81261,-1.07729],[36.80504,-1.07937],[36.79753,-1.08167],[36.79011,-1.08422],[36.78276,-1.08699],[36.77551,-1.08999],[36.76836,-1.09322],[36.76131,-1.09667],[36.75437,-1.10035],[36.74755,-1.10423],[36.74086,-1.10833],[36.7343,-1.11264],[36.72788,-1.11716],[36.7216,-1.12187],[36.71547,-1.12677],[36.7095,-1.13187],[36.7037,-1.13715],[36.69806,-1.14261],[36.69259,-1.14825],[36.68731,-1.15405],[36.68221,-1.16002],[36.6773,-1.16615],[36.67259,-1.17242],[36.66808,-1.17884],[36.66377,-1.1854],[36.65966,-1.19209],[36.65577,-1.19891],[36.6521,-1.20585],[36.64865,-1.21289],[36.64541,-1.22005],[36.64241,-1.2273],[36.63963,-1.23464],[36.63709,-1.24206],[36.63478,-1.24957],[36.63271,-1.25714],[36.63088,-1.26477],[36.62928,-1.27245],[36.62793,-1.28018],[36.62683,-1.28795],[36.62596,-1.29575],[36.62535,-1.30358],[36.62498,-1.31142],[36.62485,-1.31927],[36.62498,-1.32711],[36.62534,-1.33495],[36.62596,-1.34278],[36.62682,-1.35058],[36.62793,-1.35835],[36.62927,-1.36608],[36.63087,-1.37376],[36.6327,-1.3814],[36.63477,-1.38897],[36.63708,-1.39647],[36.63962,-1.40389],[36.64239,-1.41124],[36.6454,-1.41849],[36.64863,-1.42564],[36.65208,-1.43269],[36.65575,-1.43962],[36.65964,-1.44644],[36.66374,-1.45313],[36.66805,-1.45969],[36.67257,-1.46612],[36.67728,-1.47239],[36.68219,-1.47852],[36.68729,-1.48449],[36.69257,-1.49029],[36.69803,-1.49593],[36.70367,-1.50139],[36.70948,-1.50667],[36.71545,-1.51177],[36.72157,-1.51668],[36.72785,-1.52139],[36.73427,-1.5259],[36.74084,-1.53021],[36.74753,-1.53431],[36.75435,-1.5382],[36.76129,-1.54188],[36.76834,-1.54533],[36.77549,-1.54856],[36.78275,-1.55156],[36.79009,-1.55434],[36.79752,-1.55688],[36.80502,-1.55919],[36.8126,-1.56126],[36.82023,-1.56309],[36.82792,-1.56468],[36.83565,-1.56603],[36.84343,-1.56714],[36.85123,-1.568],[36.85906,-1.56862],[36.8669,-1.56899],[36.87475,-1.56911],[36.8826,-1.56899],[36.89044,-1.56862],[36.89827,-1.568],[36.90607,-1.56714],[36.91385,-1.56603],[36.92158,-1.56468],[36.92927,-1.56309],[36.9369,-1.56126],[36.94448,-1.55919],[36.95198,-1.55688],[36.95941,-1.55434],[36.96675,-1.55156],[36.97401,-1.54856],[36.98116,-1.54533],[36.98821,-1.54188],[36.99515,-1.5382],[37.00197,-1.53431],[37.00866,-1.53021],[37.01523,-1.5259],[37.02165,-1.52139],[37.02793,-1.51668],[37.03405,-1.51177],[37.04002,-1.50667],[37.04583,-1.50139],[37.05147,-1.49593],[37.05693,-1.49029],[37.06221,-1.48449],[37.06731,-1.47852],[37.07222,-1.47239],[37.07693,-1.46612],[37.08145,-1.45969],[37.08576,-1.45313],[37.08986,-1.44644],[37.09375,-1.43962],[37.09742,-1.43269],[37.10087,-1.42564],[37.1041,-1.41849],[37.10711,-1.41124],[37.10988,-1.40389],[37.11242,-1.39647],[37.11473,-1.38897],[37.1168,-1.3814],[37.11863,-1.37376],[37.12023,-1.36608],[37.12157,-1.35835],[37.12268,-1.35058],[37.12354,-1.34278],[37.12416,-1.33495],[37.12452,-1.32711],[37.12465,-1.31927],[37.12452,-1.31142],[37.12415,-1.30358],[37.12354,-1.29575],[37.12267,-1.28795],[37.12157,-1.28018],[37.12022,-1.27245],[37.11862,-1.26477],[37.11679,-1.25714],[37.11472,-1.24957],[37.11241,-1.24206],[37.10987,-1.23464],[37.10709,-1.2273],[37.10409,-1.22005],[37.10085,-1.21289],[37.0974,-1.20585],[37.09373,-1.19891],[37.08984,-1.19209],[37.08573,-1.1854],[37.08142,-1.17884],[37.07691,-1.17242],[37.0722,-1.16615],[37.06729,-1.16002],[37.06219,-1.15405],[37.05691,-1.14825],[37.05144,-1.14261],[37.0458,-1.13715],[37.04,-1.13187],[37.03403,-1.12677],[37.0279,-1.12187],[37.02162,-1.11716],[37.0152,-1.11264],[37.00864,-1.10833],[37.00195,-1.10423],[36.99513,-1.10035],[36.98819,-1.09667],[36.98114,-1.09322],[36.97399,-1.08999],[36.96674,-1.08699],[36.95939,-1.08422],[36.95197,-1.08167],[36.94446,-1.07937],[36.93689,-1.07729],[36.92926,-1.07546],[36.92157,-1.07387],[36.91384,-1.07252],[36.90607,-1.07142],[36.89827,-1.07056],[36.89044,-1.06994],[36.8826,-1.06957],[36.87475,-1.06945]]]}}, {"type":"Feature","id":13,"properties":{"_id":"6778d3f9a0370cd8fcc2586c","createdBy":"eBT9qSrxquPVguazo7MwJzzaf2p1","createdAt":"2025-01-04T06:23:53.488Z","updatedBy":"eBT9qSrxquPVguazo7MwJzzaf2p1","updatedAt":"2025-01-04T06:25:11.142Z","name":"NAIROBI FIR ZONE A","dataIngestion":true,"type":10,"icaoClass":8,"activity":0,"onDemand":false,"onRequest":false,"byNotam":false,"specialAgreement":false,"requestCompliance":false,"country":"KE","upperLimit":{"value":999,"unit":6,"referenceDatum":2},"lowerLimit":{"value":0,"unit":1,"referenceDatum":0},"hoursOfOperation":{"operatingHours":[{"dayOfWeek":0,"startTime":"00:00","endTime":"00:00","byNotam":false,"sunrise":false,"sunset":false,"publicHolidaysExcluded":false},{"dayOfWeek":1,"startTime":"00:00","endTime":"00:00","byNotam":false,"sunrise":false,"sunset":false,"publicHolidaysExcluded":false},{"dayOfWeek":2,"startTime":"00:00","endTime":"00:00","byNotam":false,"sunrise":false,"sunset":false,"publicHolidaysExcluded":false},{"dayOfWeek":3,"startTime":"00:00","endTime":"00:00","byNotam":false,"sunrise":false,"sunset":false,"publicHolidaysExcluded":false},{"dayOfWeek":4,"startTime":"00:00","endTime":"00:00","byNotam":false,"sunrise":false,"sunset":false,"publicHolidaysExcluded":false},{"dayOfWeek":5,"startTime":"00:00","endTime":"00:00","byNotam":false,"sunrise":false,"sunset":false,"publicHolidaysExcluded":false},{"dayOfWeek":6,"startTime":"00:00","endTime":"00:00","byNotam":false,"sunrise":false,"sunset":false,"publicHolidaysExcluded":false}]},"deletable":true},"geometry":{"type":"Polygon","coordinates":[[[34.08414,4],[34.08414,3.997],[33.92111,-1.00194],[39.20303,-4.66962],[39.23422,-4.70233],[44.00106,-4.70233],[44.00106,-2.00256],[42.001,-2.00256],[41.66764,-1.75258],[41.55816,-1.67487],[41.90517,3.98032],[34.08414,4]]]}}, {"type":"Feature","id":14,"properties":{"_id":"6778d3f9a0370cd8fcc2586f","createdBy":"eBT9qSrxquPVguazo7MwJzzaf2p1","createdAt":"2025-01-04T06:23:53.503Z","updatedBy":"eBT9qSrxquPVguazo7MwJzzaf2p1","updatedAt":"2025-01-04T06:25:11.305Z","name":"NAIROBI FIR ZONE B","dataIngestion":true,"type":10,"icaoClass":8,"activity":0,"onDemand":false,"onRequest":false,"byNotam":false,"specialAgreement":false,"requestCompliance":false,"country":"KE","upperLimit":{"value":999,"unit":6,"referenceDatum":2},"lowerLimit":{"value":245,"unit":6,"referenceDatum":2},"hoursOfOperation":{"operatingHours":[{"dayOfWeek":0,"startTime":"00:00","endTime":"00:00","byNotam":false,"sunrise":false,"sunset":false,"publicHolidaysExcluded":false},{"dayOfWeek":1,"startTime":"00:00","endTime":"00:00","byNotam":false,"sunrise":false,"sunset":false,"publicHolidaysExcluded":false},{"dayOfWeek":2,"startTime":"00:00","endTime":"00:00","byNotam":false,"sunrise":false,"sunset":false,"publicHolidaysExcluded":false},{"dayOfWeek":3,"startTime":"00:00","endTime":"00:00","byNotam":false,"sunrise":false,"sunset":false,"publicHolidaysExcluded":false},{"dayOfWeek":4,"startTime":"00:00","endTime":"00:00","byNotam":false,"sunrise":false,"sunset":false,"publicHolidaysExcluded":false},{"dayOfWeek":5,"startTime":"00:00","endTime":"00:00","byNotam":false,"sunrise":false,"sunset":false,"publicHolidaysExcluded":false},{"dayOfWeek":6,"startTime":"00:00","endTime":"00:00","byNotam":false,"sunrise":false,"sunset":false,"publicHolidaysExcluded":false}]},"deletable":true},"geometry":{"type":"Polygon","coordinates":[[[39.93536,-4.70233],[44.00106,-8.50203],[44.00106,-4.70233],[39.93536,-4.70233]]]}}, {"type":"Feature","id":15,"properties":{"_id":"6778d3f9a0370cd8fcc25872","createdBy":"eBT9qSrxquPVguazo7MwJzzaf2p1","createdAt":"2025-01-04T06:23:53.517Z","updatedBy":"eBT9qSrxquPVguazo7MwJzzaf2p1","updatedAt":"2025-01-04T06:25:11.415Z","name":"NAIROBI TMA","dataIngestion":true,"type":7,"icaoClass":6,"activity":0,"onDemand":false,"onRequest":false,"byNotam":false,"specialAgreement":false,"requestCompliance":false,"country":"KE","upperLimit":{"value":145,"unit":6,"referenceDatum":2},"lowerLimit":{"value":1500,"unit":1,"referenceDatum":0},"hoursOfOperation":{"operatingHours":[{"dayOfWeek":0,"startTime":"00:00","endTime":"00:00","byNotam":false,"sunrise":false,"sunset":false,"publicHolidaysExcluded":false},{"dayOfWeek":1,"startTime":"00:00","endTime":"00:00","byNotam":false,"sunrise":false,"sunset":false,"publicHolidaysExcluded":false},{"dayOfWeek":2,"startTime":"00:00","endTime":"00:00","byNotam":false,"sunrise":false,"sunset":false,"publicHolidaysExcluded":false},{"dayOfWeek":3,"startTime":"00:00","endTime":"00:00","byNotam":false,"sunrise":false,"sunset":false,"publicHolidaysExcluded":false},{"dayOfWeek":4,"startTime":"00:00","endTime":"00:00","byNotam":false,"sunrise":false,"sunset":false,"publicHolidaysExcluded":false},{"dayOfWeek":5,"startTime":"00:00","endTime":"00:00","byNotam":false,"sunrise":false,"sunset":false,"publicHolidaysExcluded":false},{"dayOfWeek":6,"startTime":"00:00","endTime":"00:00","byNotam":false,"sunrise":false,"sunset":false,"publicHolidaysExcluded":false}]},"deletable":true},"geometry":{"type":"Polygon","coordinates":[[[36.95422,-0.46712],[36.92806,-0.46753],[36.90193,-0.46876],[36.87585,-0.47081],[36.84985,-0.47368],[36.82395,-0.47737],[36.79818,-0.48187],[36.77256,-0.48717],[36.74712,-0.49327],[36.72189,-0.50018],[36.69688,-0.50787],[36.67213,-0.51634],[36.64766,-0.52558],[36.62348,-0.53559],[36.59964,-0.54636],[36.57614,-0.55786],[36.55302,-0.5701],[36.5303,-0.58306],[36.50799,-0.59673],[36.48612,-0.61108],[36.46471,-0.62612],[36.44379,-0.64183],[36.42337,-0.65818],[36.40347,-0.67517],[36.38412,-0.69277],[36.36533,-0.71097],[36.34712,-0.72976],[36.32951,-0.7491],[36.31251,-0.76899],[36.29615,-0.7894],[36.28044,-0.81032],[36.26539,-0.83172],[36.25102,-0.85358],[36.23734,-0.87588],[36.22438,-0.8986],[36.21213,-0.92172],[36.20061,-0.94521],[36.18984,-0.96905],[36.17982,-0.99322],[36.17056,-1.01769],[36.16208,-1.04243],[36.15438,-1.06743],[36.14747,-1.09267],[36.14135,-1.1181],[36.13604,-1.14372],[36.13153,-1.16949],[36.12784,-1.19538],[36.12496,-1.22138],[36.1229,-1.24746],[36.12166,-1.27359],[36.12124,-1.29975],[36.12164,-1.32591],[36.12286,-1.35204],[36.12491,-1.37812],[36.12777,-1.40412],[36.13145,-1.43002],[36.13594,-1.4558],[36.14124,-1.48142],[36.14734,-1.50685],[36.15423,-1.53209],[36.16192,-1.5571],[36.17039,-1.58185],[36.17963,-1.60632],[36.18964,-1.6305],[36.2004,-1.65434],[36.21191,-1.67784],[36.22414,-1.70096],[36.2371,-1.72369],[36.25077,-1.746],[36.26513,-1.76787],[36.28018,-1.78928],[36.29588,-1.8102],[36.31224,-1.83062],[36.32924,-1.85052],[36.34685,-1.86988],[36.36505,-1.88867],[36.38385,-1.90688],[36.4032,-1.92449],[36.4231,-1.94148],[36.44352,-1.95785],[36.46445,-1.97356],[36.48586,-1.98861],[36.50774,-2.00297],[36.53006,-2.01665],[36.55279,-2.02961],[36.57592,-2.04186],[36.59943,-2.05337],[36.62328,-2.06414],[36.64747,-2.07416],[36.67195,-2.08341],[36.69672,-2.09189],[36.72174,-2.09958],[36.74699,-2.10649],[36.77244,-2.1126],[36.79808,-2.1179],[36.82386,-2.1224],[36.84978,-2.12609],[36.8758,-2.12896],[36.9019,-2.13102],[36.92805,-2.13225],[36.95422,-2.13266],[36.9804,-2.13225],[37.00655,-2.13102],[37.03264,-2.12896],[37.05866,-2.12609],[37.08458,-2.1224],[37.11037,-2.1179],[37.136,-2.1126],[37.16146,-2.10649],[37.18671,-2.09958],[37.21173,-2.09189],[37.23649,-2.08341],[37.26098,-2.07416],[37.28516,-2.06414],[37.30902,-2.05337],[37.33252,-2.04186],[37.35565,-2.02961],[37.37839,-2.01665],[37.4007,-2.00297],[37.42258,-1.98861],[37.44399,-1.97356],[37.46492,-1.95785],[37.48534,-1.94148],[37.50524,-1.92449],[37.5246,-1.90688],[37.54339,-1.88867],[37.5616,-1.86988],[37.57921,-1.85052],[37.5962,-1.83062],[37.61256,-1.8102],[37.62827,-1.78928],[37.64331,-1.76787],[37.65767,-1.746],[37.67134,-1.72369],[37.6843,-1.70096],[37.69654,-1.67784],[37.70805,-1.65434],[37.71881,-1.6305],[37.72881,-1.60632],[37.73806,-1.58185],[37.74652,-1.5571],[37.75421,-1.53209],[37.76111,-1.50685],[37.76721,-1.48142],[37.77251,-1.4558],[37.777,-1.43002],[37.78067,-1.40412],[37.78354,-1.37812],[37.78558,-1.35204],[37.7868,-1.32591],[37.78721,-1.29975],[37.78679,-1.27359],[37.78555,-1.24746],[37.78349,-1.22138],[37.78061,-1.19538],[37.77691,-1.16949],[37.7724,-1.14372],[37.76709,-1.1181],[37.76097,-1.09267],[37.75406,-1.06743],[37.74636,-1.04243],[37.73788,-1.01769],[37.72863,-0.99322],[37.71861,-0.96905],[37.70783,-0.94521],[37.69632,-0.92172],[37.68407,-0.8986],[37.6711,-0.87588],[37.65742,-0.85358],[37.64306,-0.83172],[37.62801,-0.81032],[37.61229,-0.7894],[37.59593,-0.76899],[37.57894,-0.7491],[37.56133,-0.72976],[37.54311,-0.71097],[37.52432,-0.69277],[37.50497,-0.67517],[37.48507,-0.65818],[37.46465,-0.64183],[37.44373,-0.62612],[37.42232,-0.61108],[37.40046,-0.59673],[37.37815,-0.58306],[37.35542,-0.5701],[37.3323,-0.55786],[37.3088,-0.54636],[37.28496,-0.53559],[37.26079,-0.52558],[37.23632,-0.51634],[37.21156,-0.50787],[37.18656,-0.50018],[37.16132,-0.49327],[37.13589,-0.48717],[37.11027,-0.48187],[37.0845,-0.47737],[37.0586,-0.47368],[37.03259,-0.47081],[37.00651,-0.46876],[36.98038,-0.46753],[36.95422,-0.46712]]]}}, {"type":"Feature","id":16,"properties":{"_id":"6778d3f9a0370cd8fcc25875","createdBy":"eBT9qSrxquPVguazo7MwJzzaf2p1","createdAt":"2025-01-04T06:23:53.540Z","updatedBy":"eBT9qSrxquPVguazo7MwJzzaf2p1","updatedAt":"2025-01-04T06:25:11.605Z","name":"NAIROBI TMA","dataIngestion":true,"type":7,"icaoClass":0,"activity":0,"onDemand":false,"onRequest":false,"byNotam":false,"specialAgreement":false,"requestCompliance":false,"country":"KE","upperLimit":{"value":195,"unit":6,"referenceDatum":2},"lowerLimit":{"value":145,"unit":6,"referenceDatum":2},"hoursOfOperation":{"operatingHours":[{"dayOfWeek":0,"startTime":"00:00","endTime":"00:00","byNotam":false,"sunrise":false,"sunset":false,"publicHolidaysExcluded":false},{"dayOfWeek":1,"startTime":"00:00","endTime":"00:00","byNotam":false,"sunrise":false,"sunset":false,"publicHolidaysExcluded":false},{"dayOfWeek":2,"startTime":"00:00","endTime":"00:00","byNotam":false,"sunrise":false,"sunset":false,"publicHolidaysExcluded":false},{"dayOfWeek":3,"startTime":"00:00","endTime":"00:00","byNotam":false,"sunrise":false,"sunset":false,"publicHolidaysExcluded":false},{"dayOfWeek":4,"startTime":"00:00","endTime":"00:00","byNotam":false,"sunrise":false,"sunset":false,"publicHolidaysExcluded":false},{"dayOfWeek":5,"startTime":"00:00","endTime":"00:00","byNotam":false,"sunrise":false,"sunset":false,"publicHolidaysExcluded":false},{"dayOfWeek":6,"startTime":"00:00","endTime":"00:00","byNotam":false,"sunrise":false,"sunset":false,"publicHolidaysExcluded":false}]},"deletable":true},"geometry":{"type":"Polygon","coordinates":[[[36.95422,-0.46712],[36.92806,-0.46753],[36.90193,-0.46876],[36.87585,-0.47081],[36.84985,-0.47368],[36.82395,-0.47737],[36.79818,-0.48187],[36.77256,-0.48717],[36.74712,-0.49327],[36.72189,-0.50018],[36.69688,-0.50787],[36.67213,-0.51634],[36.64766,-0.52558],[36.62348,-0.53559],[36.59964,-0.54636],[36.57614,-0.55786],[36.55302,-0.5701],[36.5303,-0.58306],[36.50799,-0.59673],[36.48612,-0.61108],[36.46471,-0.62612],[36.44379,-0.64183],[36.42337,-0.65818],[36.40347,-0.67517],[36.38412,-0.69277],[36.36533,-0.71097],[36.34712,-0.72976],[36.32951,-0.7491],[36.31251,-0.76899],[36.29615,-0.7894],[36.28044,-0.81032],[36.26539,-0.83172],[36.25102,-0.85358],[36.23734,-0.87588],[36.22438,-0.8986],[36.21213,-0.92172],[36.20061,-0.94521],[36.18984,-0.96905],[36.17982,-0.99322],[36.17056,-1.01769],[36.16208,-1.04243],[36.15438,-1.06743],[36.14747,-1.09267],[36.14135,-1.1181],[36.13604,-1.14372],[36.13153,-1.16949],[36.12784,-1.19538],[36.12496,-1.22138],[36.1229,-1.24746],[36.12166,-1.27359],[36.12124,-1.29975],[36.12164,-1.32591],[36.12286,-1.35204],[36.12491,-1.37812],[36.12777,-1.40412],[36.13145,-1.43002],[36.13594,-1.4558],[36.14124,-1.48142],[36.14734,-1.50685],[36.15423,-1.53209],[36.16192,-1.5571],[36.17039,-1.58185],[36.17963,-1.60632],[36.18964,-1.6305],[36.2004,-1.65434],[36.21191,-1.67784],[36.22414,-1.70096],[36.2371,-1.72369],[36.25077,-1.746],[36.26513,-1.76787],[36.28018,-1.78928],[36.29588,-1.8102],[36.31224,-1.83062],[36.32924,-1.85052],[36.34685,-1.86988],[36.36505,-1.88867],[36.38385,-1.90688],[36.4032,-1.92449],[36.4231,-1.94148],[36.44352,-1.95785],[36.46445,-1.97356],[36.48586,-1.98861],[36.50774,-2.00297],[36.53006,-2.01665],[36.55279,-2.02961],[36.57592,-2.04186],[36.59943,-2.05337],[36.62328,-2.06414],[36.64747,-2.07416],[36.67195,-2.08341],[36.69672,-2.09189],[36.72174,-2.09958],[36.74699,-2.10649],[36.77244,-2.1126],[36.79808,-2.1179],[36.82386,-2.1224],[36.84978,-2.12609],[36.8758,-2.12896],[36.9019,-2.13102],[36.92805,-2.13225],[36.95422,-2.13266],[36.9804,-2.13225],[37.00655,-2.13102],[37.03264,-2.12896],[37.05866,-2.12609],[37.08458,-2.1224],[37.11037,-2.1179],[37.136,-2.1126],[37.16146,-2.10649],[37.18671,-2.09958],[37.21173,-2.09189],[37.23649,-2.08341],[37.26098,-2.07416],[37.28516,-2.06414],[37.30902,-2.05337],[37.33252,-2.04186],[37.35565,-2.02961],[37.37839,-2.01665],[37.4007,-2.00297],[37.42258,-1.98861],[37.44399,-1.97356],[37.46492,-1.95785],[37.48534,-1.94148],[37.50524,-1.92449],[37.5246,-1.90688],[37.54339,-1.88867],[37.5616,-1.86988],[37.57921,-1.85052],[37.5962,-1.83062],[37.61256,-1.8102],[37.62827,-1.78928],[37.64331,-1.76787],[37.65767,-1.746],[37.67134,-1.72369],[37.6843,-1.70096],[37.69654,-1.67784],[37.70805,-1.65434],[37.71881,-1.6305],[37.72881,-1.60632],[37.73806,-1.58185],[37.74652,-1.5571],[37.75421,-1.53209],[37.76111,-1.50685],[37.76721,-1.48142],[37.77251,-1.4558],[37.777,-1.43002],[37.78067,-1.40412],[37.78354,-1.37812],[37.78558,-1.35204],[37.7868,-1.32591],[37.78721,-1.29975],[37.78679,-1.27359],[37.78555,-1.24746],[37.78349,-1.22138],[37.78061,-1.19538],[37.77691,-1.16949],[37.7724,-1.14372],[37.76709,-1.1181],[37.76097,-1.09267],[37.75406,-1.06743],[37.74636,-1.04243],[37.73788,-1.01769],[37.72863,-0.99322],[37.71861,-0.96905],[37.70783,-0.94521],[37.69632,-0.92172],[37.68407,-0.8986],[37.6711,-0.87588],[37.65742,-0.85358],[37.64306,-0.83172],[37.62801,-0.81032],[37.61229,-0.7894],[37.59593,-0.76899],[37.57894,-0.7491],[37.56133,-0.72976],[37.54311,-0.71097],[37.52432,-0.69277],[37.50497,-0.67517],[37.48507,-0.65818],[37.46465,-0.64183],[37.44373,-0.62612],[37.42232,-0.61108],[37.40046,-0.59673],[37.37815,-0.58306],[37.35542,-0.5701],[37.3323,-0.55786],[37.3088,-0.54636],[37.28496,-0.53559],[37.26079,-0.52558],[37.23632,-0.51634],[37.21156,-0.50787],[37.18656,-0.50018],[37.16132,-0.49327],[37.13589,-0.48717],[37.11027,-0.48187],[37.0845,-0.47737],[37.0586,-0.47368],[37.03259,-0.47081],[37.00651,-0.46876],[36.98038,-0.46753],[36.95422,-0.46712]]]}}, {"type":"Feature","id":17,"properties":{"_id":"6778d3f9a0370cd8fcc25878","createdBy":"eBT9qSrxquPVguazo7MwJzzaf2p1","createdAt":"2025-01-04T06:23:53.588Z","updatedBy":"eBT9qSrxquPVguazo7MwJzzaf2p1","updatedAt":"2025-01-04T06:25:11.791Z","name":"WAJIR CTR","dataIngestion":true,"type":4,"icaoClass":3,"activity":0,"onDemand":false,"onRequest":false,"byNotam":false,"specialAgreement":false,"requestCompliance":false,"country":"KE","upperLimit":{"value":5000,"unit":1,"referenceDatum":1},"lowerLimit":{"value":0,"unit":1,"referenceDatum":0},"hoursOfOperation":{"operatingHours":[{"dayOfWeek":0,"startTime":"00:00","endTime":"00:00","byNotam":false,"sunrise":false,"sunset":false,"publicHolidaysExcluded":false},{"dayOfWeek":1,"startTime":"00:00","endTime":"00:00","byNotam":false,"sunrise":false,"sunset":false,"publicHolidaysExcluded":false},{"dayOfWeek":2,"startTime":"00:00","endTime":"00:00","byNotam":false,"sunrise":false,"sunset":false,"publicHolidaysExcluded":false},{"dayOfWeek":3,"startTime":"00:00","endTime":"00:00","byNotam":false,"sunrise":false,"sunset":false,"publicHolidaysExcluded":false},{"dayOfWeek":4,"startTime":"00:00","endTime":"00:00","byNotam":false,"sunrise":false,"sunset":false,"publicHolidaysExcluded":false},{"dayOfWeek":5,"startTime":"00:00","endTime":"00:00","byNotam":false,"sunrise":false,"sunset":false,"publicHolidaysExcluded":false},{"dayOfWeek":6,"startTime":"00:00","endTime":"00:00","byNotam":false,"sunrise":false,"sunset":false,"publicHolidaysExcluded":false}]},"deletable":true},"geometry":{"type":"Polygon","coordinates":[[[40.09153,1.983],[40.08368,1.98287],[40.07583,1.9825],[40.068,1.98189],[40.0602,1.98103],[40.05242,1.97992],[40.04469,1.97857],[40.037,1.97698],[40.02936,1.97515],[40.02179,1.97308],[40.01428,1.97077],[40.00685,1.96823],[39.9995,1.96545],[39.99225,1.96245],[39.98509,1.95922],[39.97804,1.95576],[39.9711,1.95209],[39.96428,1.9482],[39.95758,1.9441],[39.95102,1.93979],[39.9446,1.93528],[39.93832,1.93057],[39.93219,1.92566],[39.92622,1.92056],[39.92041,1.91528],[39.91477,1.90982],[39.90931,1.90418],[39.90402,1.89837],[39.89892,1.8924],[39.89402,1.88628],[39.8893,1.88],[39.88479,1.87358],[39.88048,1.86702],[39.87637,1.86033],[39.87248,1.85351],[39.86881,1.84657],[39.86536,1.83953],[39.86213,1.83237],[39.85912,1.82512],[39.85635,1.81778],[39.85381,1.81035],[39.8515,1.80285],[39.84943,1.79528],[39.84759,1.78765],[39.846,1.77996],[39.84465,1.77223],[39.84355,1.76446],[39.84269,1.75666],[39.84207,1.74884],[39.8417,1.741],[39.84158,1.73315],[39.84171,1.7253],[39.84208,1.71746],[39.84269,1.70964],[39.84356,1.70184],[39.84466,1.69407],[39.84602,1.68634],[39.84761,1.67865],[39.84944,1.67102],[39.85152,1.66345],[39.85383,1.65595],[39.85637,1.64853],[39.85915,1.64118],[39.86215,1.63393],[39.86538,1.62678],[39.86884,1.61973],[39.87251,1.6128],[39.8764,1.60598],[39.88051,1.59929],[39.88482,1.59273],[39.88933,1.58631],[39.89405,1.58003],[39.89896,1.57391],[39.90406,1.56794],[39.90934,1.56214],[39.91481,1.5565],[39.92044,1.55104],[39.92625,1.54576],[39.93222,1.54066],[39.93835,1.53576],[39.94463,1.53104],[39.95105,1.52653],[39.95761,1.52222],[39.96431,1.51812],[39.97113,1.51423],[39.97807,1.51056],[39.98512,1.50711],[39.99227,1.50388],[39.99953,1.50088],[40.00687,1.4981],[40.0143,1.49556],[40.0218,1.49325],[40.02938,1.49118],[40.03701,1.48935],[40.0447,1.48776],[40.05243,1.48641],[40.06021,1.48531],[40.06801,1.48444],[40.07584,1.48383],[40.08368,1.48346],[40.09153,1.48334],[40.09938,1.48346],[40.10722,1.48383],[40.11505,1.48444],[40.12285,1.48531],[40.13062,1.48641],[40.13836,1.48776],[40.14605,1.48935],[40.15368,1.49118],[40.16125,1.49325],[40.16876,1.49556],[40.17618,1.4981],[40.18353,1.50088],[40.19078,1.50388],[40.19794,1.50711],[40.20499,1.51056],[40.21193,1.51423],[40.21875,1.51812],[40.22544,1.52222],[40.232,1.52653],[40.23843,1.53104],[40.24471,1.53576],[40.25083,1.54066],[40.2568,1.54576],[40.26261,1.55104],[40.26825,1.5565],[40.27371,1.56214],[40.279,1.56794],[40.2841,1.57391],[40.28901,1.58003],[40.29372,1.58631],[40.29824,1.59273],[40.30255,1.59929],[40.30665,1.60598],[40.31054,1.6128],[40.31422,1.61973],[40.31767,1.62678],[40.3209,1.63393],[40.32391,1.64118],[40.32669,1.64853],[40.32923,1.65595],[40.33154,1.66345],[40.33361,1.67102],[40.33545,1.67865],[40.33704,1.68634],[40.33839,1.69407],[40.3395,1.70184],[40.34036,1.70964],[40.34098,1.71746],[40.34135,1.7253],[40.34147,1.73315],[40.34135,1.741],[40.34098,1.74884],[40.34037,1.75666],[40.33951,1.76446],[40.3384,1.77223],[40.33705,1.77996],[40.33546,1.78765],[40.33363,1.79528],[40.33156,1.80285],[40.32925,1.81035],[40.32671,1.81778],[40.32393,1.82512],[40.32093,1.83237],[40.3177,1.83953],[40.31424,1.84657],[40.31057,1.85351],[40.30668,1.86033],[40.30258,1.86702],[40.29827,1.87358],[40.29375,1.88],[40.28904,1.88628],[40.28413,1.8924],[40.27903,1.89837],[40.27375,1.90418],[40.26828,1.90982],[40.26264,1.91528],[40.25684,1.92056],[40.25087,1.92566],[40.24474,1.93057],[40.23846,1.93528],[40.23203,1.93979],[40.22547,1.9441],[40.21878,1.9482],[40.21195,1.95209],[40.20501,1.95576],[40.19796,1.95922],[40.19081,1.96245],[40.18355,1.96545],[40.1762,1.96823],[40.16878,1.97077],[40.16127,1.97308],[40.1537,1.97515],[40.14606,1.97698],[40.13837,1.97857],[40.13063,1.97992],[40.12286,1.98103],[40.11505,1.98189],[40.10722,1.9825],[40.09938,1.98287],[40.09153,1.983]]]}}, {"type":"Feature","id":18,"properties":{"_id":"6778d3f9a0370cd8fcc2587b","createdBy":"eBT9qSrxquPVguazo7MwJzzaf2p1","createdAt":"2025-01-04T06:23:53.609Z","updatedBy":"eBT9qSrxquPVguazo7MwJzzaf2p1","updatedAt":"2025-01-04T06:25:11.912Z","name":"WAJIR TMA","dataIngestion":true,"type":7,"icaoClass":4,"activity":0,"onDemand":false,"onRequest":false,"byNotam":false,"specialAgreement":false,"requestCompliance":false,"country":"KE","upperLimit":{"value":145,"unit":6,"referenceDatum":2},"lowerLimit":{"value":1500,"unit":1,"referenceDatum":1},"hoursOfOperation":{"operatingHours":[{"dayOfWeek":0,"startTime":"00:00","endTime":"00:00","byNotam":false,"sunrise":false,"sunset":false,"publicHolidaysExcluded":false},{"dayOfWeek":1,"startTime":"00:00","endTime":"00:00","byNotam":false,"sunrise":false,"sunset":false,"publicHolidaysExcluded":false},{"dayOfWeek":2,"startTime":"00:00","endTime":"00:00","byNotam":false,"sunrise":false,"sunset":false,"publicHolidaysExcluded":false},{"dayOfWeek":3,"startTime":"00:00","endTime":"00:00","byNotam":false,"sunrise":false,"sunset":false,"publicHolidaysExcluded":false},{"dayOfWeek":4,"startTime":"00:00","endTime":"00:00","byNotam":false,"sunrise":false,"sunset":false,"publicHolidaysExcluded":false},{"dayOfWeek":5,"startTime":"00:00","endTime":"00:00","byNotam":false,"sunrise":false,"sunset":false,"publicHolidaysExcluded":false},{"dayOfWeek":6,"startTime":"00:00","endTime":"00:00","byNotam":false,"sunrise":false,"sunset":false,"publicHolidaysExcluded":false}]},"deletable":true},"geometry":{"type":"Polygon","coordinates":[[[39.14809,1.39122],[39.39793,0.95824],[41.00096,0.99719],[40.98593,1.99554],[40.60401,2.398],[40.59532,2.39701],[40.57463,2.41279],[40.55345,2.42791],[40.53181,2.44237],[40.50972,2.45613],[40.48721,2.4692],[40.4643,2.48155],[40.44101,2.49318],[40.41737,2.50407],[40.3934,2.51421],[40.36912,2.52359],[40.34456,2.53221],[40.31974,2.54005],[40.29468,2.54711],[40.26941,2.55338],[40.24396,2.55885],[40.21835,2.56352],[40.19261,2.56739],[40.16675,2.57044],[40.14082,2.57268],[40.11482,2.57411],[40.08879,2.57472],[40.06276,2.57451],[40.03675,2.57348],[40.01078,2.57164],[39.98488,2.56898],[39.95908,2.56551],[39.9334,2.56124],[39.90786,2.55616],[39.8825,2.55028],[39.85734,2.5436],[39.8324,2.53614],[39.80771,2.5279],[39.78329,2.51889],[39.75916,2.50912],[39.73536,2.4986],[39.71189,2.48733],[39.6888,2.47533],[39.66609,2.46261],[39.64379,2.44919],[39.62193,2.43507],[39.60052,2.42027],[39.57959,2.40481],[39.55916,2.3887],[39.53924,2.37195],[39.51986,2.35459],[39.50103,2.33663],[39.48278,2.31808],[39.46513,2.29898],[39.44808,2.27932],[39.43166,2.25914],[39.41588,2.23846],[39.40076,2.21729],[39.38631,2.19566],[39.37255,2.17358],[39.35949,2.15108],[39.34714,2.12819],[39.33553,2.10492],[39.32464,2.08129],[39.31451,2.05733],[39.30514,2.03307],[39.29653,2.00853],[39.2887,1.98373],[39.28165,1.95869],[39.27539,1.93344],[39.26993,1.90802],[39.26527,1.88243],[39.26142,1.85671],[39.25837,1.83088],[39.25614,1.80496],[39.25473,1.77899],[39.25413,1.75299],[39.25435,1.72699],[39.25539,1.701],[39.25724,1.67506],[39.25991,1.64919],[39.26339,1.62341],[39.26768,1.59776],[39.27277,1.57225],[39.27866,1.54692],[39.14809,1.39122]]]}}]}