{ "type": "FeatureCollection", "features": [{"type":"Feature","id":1,"properties":{"_id":"683320afa89cd3f65b7c6a8a","createdBy":"eBT9qSrxquPVguazo7MwJzzaf2p1","createdAt":"2025-05-25T13:52:47.720Z","updatedBy":"eBT9qSrxquPVguazo7MwJzzaf2p1","updatedAt":"2025-05-25T13:55:01.621Z","name":"HR-P7 GASCURIO","dataIngestion":true,"type":3,"icaoClass":8,"activity":0,"onDemand":false,"onRequest":false,"byNotam":false,"specialAgreement":false,"requestCompliance":false,"country":"RW","upperLimit":{"value":245,"unit":6,"referenceDatum":2},"lowerLimit":{"value":0,"unit":1,"referenceDatum":0},"hoursOfOperation":{"operatingHours":[{"dayOfWeek":0,"startTime":"00:00","endTime":"00:00","byNotam":false,"sunrise":false,"sunset":false,"publicHolidaysExcluded":false},{"dayOfWeek":1,"startTime":"00:00","endTime":"00:00","byNotam":false,"sunrise":false,"sunset":false,"publicHolidaysExcluded":false},{"dayOfWeek":2,"startTime":"00:00","endTime":"00:00","byNotam":false,"sunrise":false,"sunset":false,"publicHolidaysExcluded":false},{"dayOfWeek":3,"startTime":"00:00","endTime":"00:00","byNotam":false,"sunrise":false,"sunset":false,"publicHolidaysExcluded":false},{"dayOfWeek":4,"startTime":"00:00","endTime":"00:00","byNotam":false,"sunrise":false,"sunset":false,"publicHolidaysExcluded":false},{"dayOfWeek":5,"startTime":"00:00","endTime":"00:00","byNotam":false,"sunrise":false,"sunset":false,"publicHolidaysExcluded":false},{"dayOfWeek":6,"startTime":"00:00","endTime":"00:00","byNotam":false,"sunrise":false,"sunset":false,"publicHolidaysExcluded":false}]},"deletable":true},"geometry":{"type":"Polygon","coordinates":[[[30.08056,-1.94639],[30.10833,-1.94556],[30.11611,-1.91306],[30.07611,-1.89306],[30.0475,-1.93194],[30.08056,-1.94639]]]}}, {"type":"Feature","id":2,"properties":{"_id":"683320afa89cd3f65b7c6a8e","createdBy":"eBT9qSrxquPVguazo7MwJzzaf2p1","createdAt":"2025-05-25T13:52:47.788Z","updatedBy":"eBT9qSrxquPVguazo7MwJzzaf2p1","updatedAt":"2025-05-25T14:16:58.211Z","name":"HR-R2 AKAGERA NATIONAL PARK","dataIngestion":true,"type":1,"icaoClass":8,"activity":0,"onDemand":false,"onRequest":false,"byNotam":false,"specialAgreement":false,"requestCompliance":false,"country":"RW","upperLimit":{"value":7500,"unit":1,"referenceDatum":1},"lowerLimit":{"value":0,"unit":1,"referenceDatum":0},"hoursOfOperation":{"operatingHours":[{"dayOfWeek":0,"startTime":"00:00","endTime":"00:00","byNotam":false,"sunrise":false,"sunset":false,"publicHolidaysExcluded":false},{"dayOfWeek":1,"startTime":"00:00","endTime":"00:00","byNotam":false,"sunrise":false,"sunset":false,"publicHolidaysExcluded":false},{"dayOfWeek":2,"startTime":"00:00","endTime":"00:00","byNotam":false,"sunrise":false,"sunset":false,"publicHolidaysExcluded":false},{"dayOfWeek":3,"startTime":"00:00","endTime":"00:00","byNotam":false,"sunrise":false,"sunset":false,"publicHolidaysExcluded":false},{"dayOfWeek":4,"startTime":"00:00","endTime":"00:00","byNotam":false,"sunrise":false,"sunset":false,"publicHolidaysExcluded":false},{"dayOfWeek":5,"startTime":"00:00","endTime":"00:00","byNotam":false,"sunrise":false,"sunset":false,"publicHolidaysExcluded":false},{"dayOfWeek":6,"startTime":"00:00","endTime":"00:00","byNotam":false,"sunrise":false,"sunset":false,"publicHolidaysExcluded":false}]},"deletable":true},"geometry":{"type":"Polygon","coordinates":[[[30.56889,-1.33778],[30.54361,-1.44139],[30.6375,-1.67944],[30.67806,-1.77111],[30.68278,-1.80778],[30.69944,-1.96611],[30.81944,-1.86889],[30.83111,-1.81278],[30.82083,-1.70944],[30.82194,-1.70861],[30.82278,-1.70389],[30.82222,-1.69833],[30.82167,-1.69722],[30.82194,-1.69389],[30.82139,-1.69222],[30.83944,-1.65167],[30.79306,-1.5875],[30.79083,-1.58583],[30.79056,-1.58417],[30.74583,-1.52167],[30.74639,-1.52],[30.74583,-1.51833],[30.74417,-1.51722],[30.74111,-1.48],[30.73972,-1.45417],[30.74056,-1.45361],[30.74083,-1.4525],[30.73972,-1.44806],[30.73889,-1.44722],[30.73806,-1.44556],[30.73722,-1.44556],[30.73639,-1.44944],[30.68472,-1.39806],[30.68111,-1.39639],[30.67917,-1.395],[30.67889,-1.39333],[30.63083,-1.39],[30.62944,-1.38917],[30.61139,-1.355],[30.61139,-1.35306],[30.61,-1.35278],[30.60778,-1.35083],[30.60583,-1.35],[30.60361,-1.35083],[30.56889,-1.33778]]]}}, {"type":"Feature","id":3,"properties":{"_id":"683320afa89cd3f65b7c6a91","createdBy":"eBT9qSrxquPVguazo7MwJzzaf2p1","createdAt":"2025-05-25T13:52:47.977Z","updatedBy":"eBT9qSrxquPVguazo7MwJzzaf2p1","updatedAt":"2025-05-25T13:55:02.358Z","name":"HR-R6 BUGESERA","dataIngestion":true,"type":1,"icaoClass":8,"activity":0,"onDemand":false,"onRequest":false,"byNotam":false,"specialAgreement":false,"requestCompliance":false,"country":"RW","upperLimit":{"value":190,"unit":6,"referenceDatum":2},"lowerLimit":{"value":0,"unit":1,"referenceDatum":0},"hoursOfOperation":{"operatingHours":[{"dayOfWeek":0,"startTime":"00:00","endTime":"00:00","byNotam":false,"sunrise":false,"sunset":false,"publicHolidaysExcluded":false},{"dayOfWeek":1,"startTime":"00:00","endTime":"00:00","byNotam":false,"sunrise":false,"sunset":false,"publicHolidaysExcluded":false},{"dayOfWeek":2,"startTime":"00:00","endTime":"00:00","byNotam":false,"sunrise":false,"sunset":false,"publicHolidaysExcluded":false},{"dayOfWeek":3,"startTime":"00:00","endTime":"00:00","byNotam":false,"sunrise":false,"sunset":false,"publicHolidaysExcluded":false},{"dayOfWeek":4,"startTime":"00:00","endTime":"00:00","byNotam":false,"sunrise":false,"sunset":false,"publicHolidaysExcluded":false},{"dayOfWeek":5,"startTime":"00:00","endTime":"00:00","byNotam":false,"sunrise":false,"sunset":false,"publicHolidaysExcluded":false},{"dayOfWeek":6,"startTime":"00:00","endTime":"00:00","byNotam":false,"sunrise":false,"sunset":false,"publicHolidaysExcluded":false}]},"deletable":true},"geometry":{"type":"Polygon","coordinates":[[[30.13306,-2.43806],[30.13333,-2.21667],[30.05,-2.21667],[30.05,-2.36806],[30.13306,-2.43806]]]}}, {"type":"Feature","id":4,"properties":{"_id":"683320afa89cd3f65b7c6a94","createdBy":"eBT9qSrxquPVguazo7MwJzzaf2p1","createdAt":"2025-05-25T13:52:47.995Z","updatedBy":"eBT9qSrxquPVguazo7MwJzzaf2p1","updatedAt":"2025-05-25T13:55:02.479Z","name":"HR-R4 NDERA","dataIngestion":true,"type":1,"icaoClass":8,"activity":0,"onDemand":false,"onRequest":false,"byNotam":false,"specialAgreement":false,"requestCompliance":false,"country":"RW","upperLimit":{"value":8000,"unit":1,"referenceDatum":0},"lowerLimit":{"value":0,"unit":1,"referenceDatum":0},"hoursOfOperation":{"operatingHours":[{"dayOfWeek":0,"startTime":"00:00","endTime":"00:00","byNotam":false,"sunrise":false,"sunset":false,"publicHolidaysExcluded":false},{"dayOfWeek":1,"startTime":"00:00","endTime":"00:00","byNotam":false,"sunrise":false,"sunset":false,"publicHolidaysExcluded":false},{"dayOfWeek":2,"startTime":"00:00","endTime":"00:00","byNotam":false,"sunrise":false,"sunset":false,"publicHolidaysExcluded":false},{"dayOfWeek":3,"startTime":"00:00","endTime":"00:00","byNotam":false,"sunrise":false,"sunset":false,"publicHolidaysExcluded":false},{"dayOfWeek":4,"startTime":"00:00","endTime":"00:00","byNotam":false,"sunrise":false,"sunset":false,"publicHolidaysExcluded":false},{"dayOfWeek":5,"startTime":"00:00","endTime":"00:00","byNotam":false,"sunrise":false,"sunset":false,"publicHolidaysExcluded":false},{"dayOfWeek":6,"startTime":"00:00","endTime":"00:00","byNotam":false,"sunrise":false,"sunset":false,"publicHolidaysExcluded":false}]},"deletable":true},"geometry":{"type":"Polygon","coordinates":[[[30.16917,-1.945842],[30.167352,-1.946043],[30.165622,-1.946635],[30.164063,-1.94759],[30.16275,-1.948862],[30.161746,-1.950389],[30.161099,-1.952099],[30.160842,-1.953908],[30.160985,-1.95573],[30.161523,-1.957477],[30.162429,-1.959065],[30.16366,-1.960417],[30.165156,-1.961468],[30.166845,-1.962167],[30.168647,-1.962481],[30.170474,-1.962395],[30.172237,-1.961913],[30.173854,-1.961058],[30.175244,-1.959871],[30.176342,-1.958409],[30.177095,-1.956743],[30.177466,-1.954954],[30.177437,-1.953126],[30.17701,-1.951349],[30.176205,-1.949708],[30.175062,-1.948281],[30.173635,-1.947139],[30.171993,-1.946335],[30.16917,-1.945842]]]}}, {"type":"Feature","id":5,"properties":{"_id":"683320b0a89cd3f65b7c6a97","createdBy":"eBT9qSrxquPVguazo7MwJzzaf2p1","createdAt":"2025-05-25T13:52:48.016Z","updatedBy":"eBT9qSrxquPVguazo7MwJzzaf2p1","updatedAt":"2025-05-25T14:16:57.827Z","name":"HR-R3 NYUNGWE NATIONAL PARK","dataIngestion":true,"type":1,"icaoClass":8,"activity":0,"onDemand":false,"onRequest":false,"byNotam":false,"specialAgreement":false,"requestCompliance":false,"country":"RW","upperLimit":{"value":115,"unit":6,"referenceDatum":2},"lowerLimit":{"value":0,"unit":1,"referenceDatum":0},"hoursOfOperation":{"operatingHours":[{"dayOfWeek":0,"startTime":"00:00","endTime":"00:00","byNotam":false,"sunrise":false,"sunset":false,"publicHolidaysExcluded":false},{"dayOfWeek":1,"startTime":"00:00","endTime":"00:00","byNotam":false,"sunrise":false,"sunset":false,"publicHolidaysExcluded":false},{"dayOfWeek":2,"startTime":"00:00","endTime":"00:00","byNotam":false,"sunrise":false,"sunset":false,"publicHolidaysExcluded":false},{"dayOfWeek":3,"startTime":"00:00","endTime":"00:00","byNotam":false,"sunrise":false,"sunset":false,"publicHolidaysExcluded":false},{"dayOfWeek":4,"startTime":"00:00","endTime":"00:00","byNotam":false,"sunrise":false,"sunset":false,"publicHolidaysExcluded":false},{"dayOfWeek":5,"startTime":"00:00","endTime":"00:00","byNotam":false,"sunrise":false,"sunset":false,"publicHolidaysExcluded":false},{"dayOfWeek":6,"startTime":"00:00","endTime":"00:00","byNotam":false,"sunrise":false,"sunset":false,"publicHolidaysExcluded":false}]},"deletable":true},"geometry":{"type":"Polygon","coordinates":[[[29.43861,-2.79806],[29.44389,-2.58639],[29.37833,-2.32333],[29.27833,-2.31139],[29.25583,-2.41611],[29.12611,-2.41139],[29.05361,-2.45167],[29.06889,-2.52333],[29.20722,-2.6025],[29.25944,-2.62111],[29.26306,-2.61861],[29.26694,-2.62139],[29.26806,-2.62472],[29.26944,-2.62361],[29.27333,-2.62361],[29.28194,-2.62556],[29.28833,-2.63417],[29.29139,-2.63861],[29.29806,-2.64194],[29.31444,-2.64583],[29.31722,-2.64361],[29.32361,-2.64389],[29.32417,-2.65],[29.32944,-2.65917],[29.33472,-2.67167],[29.3325,-2.67972],[29.32944,-2.68139],[29.32917,-2.69],[29.33111,-2.69278],[29.33528,-2.69083],[29.3375,-2.69278],[29.33972,-2.69861],[29.345,-2.7025],[29.35,-2.70028],[29.35056,-2.71194],[29.34833,-2.71611],[29.34861,-2.72111],[29.35139,-2.72444],[29.35167,-2.73444],[29.345,-2.74028],[29.33611,-2.74417],[29.33333,-2.74722],[29.34111,-2.75278],[29.33889,-2.76333],[29.35083,-2.76861],[29.34833,-2.77694],[29.35694,-2.79139],[29.35167,-2.79889],[29.35278,-2.80444],[29.35639,-2.80667],[29.36222,-2.81889],[29.36111,-2.82333],[29.365,-2.82806],[29.36194,-2.83111],[29.36306,-2.8325],[29.36778,-2.83167],[29.37111,-2.83972],[29.37306,-2.83806],[29.37694,-2.8375],[29.37806,-2.83139],[29.38111,-2.83083],[29.38472,-2.82167],[29.39556,-2.81639],[29.39694,-2.82],[29.40056,-2.82139],[29.40722,-2.81528],[29.41417,-2.81444],[29.41944,-2.80889],[29.43139,-2.80389],[29.43333,-2.80056],[29.43861,-2.79806]]]}}, {"type":"Feature","id":6,"properties":{"_id":"683320b0a89cd3f65b7c6a9a","createdBy":"eBT9qSrxquPVguazo7MwJzzaf2p1","createdAt":"2025-05-25T13:52:48.035Z","updatedBy":"eBT9qSrxquPVguazo7MwJzzaf2p1","updatedAt":"2025-05-25T14:16:57.985Z","name":"HR-R1 VOLCANOES NATIONAL PARK","dataIngestion":true,"type":1,"icaoClass":8,"activity":0,"onDemand":false,"onRequest":false,"byNotam":false,"specialAgreement":false,"requestCompliance":false,"country":"RW","upperLimit":{"value":165,"unit":6,"referenceDatum":2},"lowerLimit":{"value":0,"unit":1,"referenceDatum":0},"hoursOfOperation":{"operatingHours":[{"dayOfWeek":0,"startTime":"00:00","endTime":"00:00","byNotam":false,"sunrise":false,"sunset":false,"publicHolidaysExcluded":false},{"dayOfWeek":1,"startTime":"00:00","endTime":"00:00","byNotam":false,"sunrise":false,"sunset":false,"publicHolidaysExcluded":false},{"dayOfWeek":2,"startTime":"00:00","endTime":"00:00","byNotam":false,"sunrise":false,"sunset":false,"publicHolidaysExcluded":false},{"dayOfWeek":3,"startTime":"00:00","endTime":"00:00","byNotam":false,"sunrise":false,"sunset":false,"publicHolidaysExcluded":false},{"dayOfWeek":4,"startTime":"00:00","endTime":"00:00","byNotam":false,"sunrise":false,"sunset":false,"publicHolidaysExcluded":false},{"dayOfWeek":5,"startTime":"00:00","endTime":"00:00","byNotam":false,"sunrise":false,"sunset":false,"publicHolidaysExcluded":false},{"dayOfWeek":6,"startTime":"00:00","endTime":"00:00","byNotam":false,"sunrise":false,"sunset":false,"publicHolidaysExcluded":false}]},"deletable":true},"geometry":{"type":"Polygon","coordinates":[[[29.39667,-1.50806],[29.39972,-1.53667],[29.45111,-1.565],[29.51528,-1.53056],[29.50333,-1.46167],[29.60917,-1.41528],[29.66417,-1.40556],[29.69056,-1.36611],[29.63806,-1.38944],[29.63028,-1.38778],[29.61722,-1.38778],[29.61111,-1.38917],[29.59194,-1.38806],[29.59,-1.39222],[29.58611,-1.39278],[29.5825,-1.38917],[29.57778,-1.38778],[29.56778,-1.38667],[29.56306,-1.38944],[29.55972,-1.38833],[29.55222,-1.39389],[29.54778,-1.4],[29.53861,-1.40722],[29.53167,-1.40861],[29.52694,-1.41056],[29.52389,-1.41611],[29.52417,-1.42],[29.51556,-1.42972],[29.50806,-1.43028],[29.505,-1.43333],[29.50444,-1.44],[29.49694,-1.44222],[29.49278,-1.44917],[29.45028,-1.50611],[29.39667,-1.50806]]]}}, {"type":"Feature","id":7,"properties":{"_id":"683320b0a89cd3f65b7c6a9d","createdBy":"eBT9qSrxquPVguazo7MwJzzaf2p1","createdAt":"2025-05-25T13:52:48.052Z","updatedBy":"eBT9qSrxquPVguazo7MwJzzaf2p1","updatedAt":"2025-05-25T13:55:04.292Z","name":"BUGESERA","dataIngestion":true,"type":1,"icaoClass":8,"activity":0,"onDemand":false,"onRequest":false,"byNotam":false,"specialAgreement":false,"requestCompliance":false,"country":"RW","upperLimit":{"value":190,"unit":6,"referenceDatum":2},"lowerLimit":{"value":0,"unit":1,"referenceDatum":0},"hoursOfOperation":{"operatingHours":[{"dayOfWeek":0,"startTime":"00:00","endTime":"00:00","byNotam":false,"sunrise":false,"sunset":false,"publicHolidaysExcluded":false},{"dayOfWeek":1,"startTime":"00:00","endTime":"00:00","byNotam":false,"sunrise":false,"sunset":false,"publicHolidaysExcluded":false},{"dayOfWeek":2,"startTime":"00:00","endTime":"00:00","byNotam":false,"sunrise":false,"sunset":false,"publicHolidaysExcluded":false},{"dayOfWeek":3,"startTime":"00:00","endTime":"00:00","byNotam":false,"sunrise":false,"sunset":false,"publicHolidaysExcluded":false},{"dayOfWeek":4,"startTime":"00:00","endTime":"00:00","byNotam":false,"sunrise":false,"sunset":false,"publicHolidaysExcluded":false},{"dayOfWeek":5,"startTime":"00:00","endTime":"00:00","byNotam":false,"sunrise":false,"sunset":false,"publicHolidaysExcluded":false},{"dayOfWeek":6,"startTime":"00:00","endTime":"00:00","byNotam":false,"sunrise":false,"sunset":false,"publicHolidaysExcluded":false}]},"deletable":true},"geometry":{"type":"Polygon","coordinates":[[[30.13306,-2.43806],[30.13333,-2.21667],[30.05,-2.21667],[30.05,-2.36806],[30.13306,-2.43806]]]}}, {"type":"Feature","id":8,"properties":{"_id":"683320b0a89cd3f65b7c6aa0","createdBy":"eBT9qSrxquPVguazo7MwJzzaf2p1","createdAt":"2025-05-25T13:52:48.072Z","updatedBy":"eBT9qSrxquPVguazo7MwJzzaf2p1","updatedAt":"2025-05-25T13:55:05.227Z","name":"KIGALI","dataIngestion":true,"type":4,"icaoClass":2,"activity":0,"onDemand":false,"onRequest":false,"byNotam":false,"specialAgreement":false,"requestCompliance":false,"country":"RW","upperLimit":{"value":10000,"unit":1,"referenceDatum":1},"lowerLimit":{"value":0,"unit":1,"referenceDatum":0},"frequencies":[{"value":"118.300","primary":false,"unit":2,"name":"KIGALI TWR","_id":"683320b0a89cd3f65b7c6aa1"}],"hoursOfOperation":{"operatingHours":[{"dayOfWeek":0,"startTime":"00:00","endTime":"00:00","byNotam":false,"sunrise":false,"sunset":false,"publicHolidaysExcluded":false},{"dayOfWeek":1,"startTime":"00:00","endTime":"00:00","byNotam":false,"sunrise":false,"sunset":false,"publicHolidaysExcluded":false},{"dayOfWeek":2,"startTime":"00:00","endTime":"00:00","byNotam":false,"sunrise":false,"sunset":false,"publicHolidaysExcluded":false},{"dayOfWeek":3,"startTime":"00:00","endTime":"00:00","byNotam":false,"sunrise":false,"sunset":false,"publicHolidaysExcluded":false},{"dayOfWeek":4,"startTime":"00:00","endTime":"00:00","byNotam":false,"sunrise":false,"sunset":false,"publicHolidaysExcluded":false},{"dayOfWeek":5,"startTime":"00:00","endTime":"00:00","byNotam":false,"sunrise":false,"sunset":false,"publicHolidaysExcluded":false},{"dayOfWeek":6,"startTime":"00:00","endTime":"00:00","byNotam":false,"sunrise":false,"sunset":false,"publicHolidaysExcluded":false}]},"deletable":true},"geometry":{"type":"Polygon","coordinates":[[[30.14756,-1.635452],[30.137093,-1.635616],[30.126636,-1.636109],[30.116199,-1.63693],[30.105794,-1.638078],[30.095429,-1.639552],[30.085116,-1.641351],[30.074865,-1.643473],[30.064686,-1.645915],[30.054588,-1.648676],[30.044582,-1.651752],[30.034677,-1.655141],[30.024884,-1.658839],[30.015212,-1.662843],[30.00567,-1.667149],[29.996268,-1.671752],[29.987016,-1.676648],[29.977922,-1.681832],[29.968995,-1.687298],[29.960244,-1.693043],[29.951678,-1.699059],[29.943306,-1.705341],[29.935135,-1.711883],[29.927173,-1.718678],[29.919429,-1.72572],[29.91191,-1.733001],[29.904623,-1.740515],[29.897576,-1.748254],[29.890776,-1.75621],[29.884229,-1.764376],[29.877941,-1.772743],[29.87192,-1.781303],[29.866171,-1.790049],[29.860699,-1.79897],[29.85551,-1.808059],[29.850609,-1.817306],[29.846002,-1.826703],[29.841692,-1.836239],[29.837683,-1.845906],[29.833981,-1.855695],[29.830587,-1.865594],[29.827507,-1.875596],[29.824742,-1.885689],[29.822296,-1.895863],[29.820171,-1.90611],[29.818369,-1.916418],[29.816891,-1.926778],[29.81574,-1.937179],[29.814917,-1.947611],[29.814422,-1.958064],[29.814255,-1.968527],[29.814417,-1.97899],[29.814909,-1.989443],[29.815728,-1.999875],[29.816875,-2.010277],[29.818348,-2.020637],[29.820146,-2.030946],[29.822268,-2.041193],[29.82471,-2.051369],[29.827471,-2.061463],[29.830548,-2.071465],[29.833938,-2.081366],[29.837638,-2.091156],[29.841643,-2.100825],[29.84595,-2.110363],[29.850555,-2.119761],[29.855454,-2.12901],[29.86064,-2.138101],[29.86611,-2.147024],[29.871858,-2.155771],[29.877878,-2.164334],[29.884164,-2.172703],[29.89071,-2.180871],[29.89751,-2.188829],[29.904557,-2.19657],[29.911843,-2.204086],[29.919362,-2.211369],[29.927107,-2.218413],[29.935069,-2.22521],[29.943241,-2.231754],[29.951615,-2.238038],[29.960182,-2.244056],[29.968935,-2.249803],[29.977863,-2.255271],[29.98696,-2.260457],[29.996214,-2.265354],[30.005619,-2.269959],[30.015163,-2.274266],[30.024838,-2.278271],[30.034635,-2.281971],[30.044542,-2.285361],[30.054552,-2.288439],[30.064654,-2.291201],[30.074837,-2.293644],[30.085092,-2.295767],[30.095409,-2.297566],[30.105777,-2.299041],[30.116187,-2.30019],[30.126627,-2.301011],[30.137088,-2.301504],[30.14756,-2.301668],[30.158032,-2.301504],[30.168493,-2.301011],[30.178933,-2.30019],[30.189343,-2.299041],[30.199711,-2.297566],[30.210028,-2.295767],[30.220283,-2.293644],[30.230466,-2.291201],[30.240568,-2.288439],[30.250578,-2.285361],[30.260485,-2.281971],[30.270282,-2.278271],[30.279957,-2.274266],[30.289501,-2.269959],[30.298906,-2.265354],[30.30816,-2.260457],[30.317257,-2.255271],[30.326185,-2.249803],[30.334938,-2.244056],[30.343505,-2.238038],[30.351879,-2.231754],[30.360051,-2.22521],[30.368013,-2.218413],[30.375758,-2.211369],[30.383277,-2.204086],[30.390563,-2.19657],[30.39761,-2.188829],[30.40441,-2.180871],[30.410956,-2.172703],[30.417242,-2.164334],[30.423262,-2.155771],[30.42901,-2.147024],[30.43448,-2.138101],[30.439666,-2.12901],[30.444565,-2.119761],[30.44917,-2.110363],[30.453477,-2.100825],[30.457482,-2.091156],[30.461182,-2.081366],[30.464572,-2.071465],[30.467649,-2.061463],[30.47041,-2.051369],[30.472852,-2.041193],[30.474974,-2.030946],[30.476772,-2.020637],[30.478245,-2.010277],[30.479392,-1.999875],[30.480211,-1.989443],[30.480703,-1.97899],[30.480865,-1.968527],[30.480698,-1.958064],[30.480203,-1.947611],[30.47938,-1.937179],[30.478229,-1.926778],[30.476751,-1.916418],[30.474949,-1.90611],[30.472824,-1.895863],[30.470378,-1.885689],[30.467613,-1.875596],[30.464533,-1.865594],[30.461139,-1.855695],[30.457437,-1.845906],[30.453428,-1.836239],[30.449118,-1.826703],[30.444511,-1.817306],[30.43961,-1.808059],[30.434421,-1.79897],[30.428949,-1.790049],[30.4232,-1.781303],[30.417179,-1.772743],[30.410891,-1.764376],[30.404344,-1.75621],[30.397544,-1.748254],[30.390497,-1.740515],[30.38321,-1.733001],[30.375691,-1.72572],[30.367947,-1.718678],[30.359985,-1.711883],[30.351814,-1.705341],[30.343442,-1.699059],[30.334876,-1.693043],[30.326125,-1.687298],[30.317198,-1.681832],[30.308104,-1.676648],[30.298852,-1.671752],[30.28945,-1.667149],[30.279908,-1.662843],[30.270236,-1.658839],[30.260443,-1.655141],[30.250538,-1.651752],[30.240532,-1.648676],[30.230434,-1.645915],[30.220255,-1.643473],[30.210004,-1.641351],[30.199691,-1.639552],[30.189326,-1.638078],[30.178921,-1.63693],[30.168484,-1.636109],[30.158027,-1.635616],[30.14756,-1.635452]]]}}, {"type":"Feature","id":9,"properties":{"_id":"683320b0a89cd3f65b7c6aa4","createdBy":"eBT9qSrxquPVguazo7MwJzzaf2p1","createdAt":"2025-05-25T13:52:48.112Z","updatedBy":"eBT9qSrxquPVguazo7MwJzzaf2p1","updatedAt":"2025-05-25T14:16:57.791Z","name":"GISENYI","dataIngestion":true,"type":13,"icaoClass":6,"activity":0,"onDemand":false,"onRequest":false,"byNotam":false,"specialAgreement":false,"requestCompliance":false,"country":"RW","upperLimit":{"value":6500,"unit":1,"referenceDatum":1},"lowerLimit":{"value":0,"unit":1,"referenceDatum":0},"frequencies":[{"value":"121.800","primary":false,"unit":2,"name":"GISENYI TWR","_id":"683325b8a89cd3f65b7cb136"}],"hoursOfOperation":{"operatingHours":[{"dayOfWeek":0,"startTime":"00:00","endTime":"00:00","byNotam":false,"sunrise":false,"sunset":false,"publicHolidaysExcluded":false},{"dayOfWeek":1,"startTime":"00:00","endTime":"00:00","byNotam":false,"sunrise":false,"sunset":false,"publicHolidaysExcluded":false},{"dayOfWeek":2,"startTime":"00:00","endTime":"00:00","byNotam":false,"sunrise":false,"sunset":false,"publicHolidaysExcluded":false},{"dayOfWeek":3,"startTime":"00:00","endTime":"00:00","byNotam":false,"sunrise":false,"sunset":false,"publicHolidaysExcluded":false},{"dayOfWeek":4,"startTime":"00:00","endTime":"00:00","byNotam":false,"sunrise":false,"sunset":false,"publicHolidaysExcluded":false},{"dayOfWeek":5,"startTime":"00:00","endTime":"00:00","byNotam":false,"sunrise":false,"sunset":false,"publicHolidaysExcluded":false},{"dayOfWeek":6,"startTime":"00:00","endTime":"00:00","byNotam":false,"sunrise":false,"sunset":false,"publicHolidaysExcluded":false}]},"deletable":true},"geometry":{"type":"Polygon","coordinates":[[[29.26306,-1.64583],[29.26139,-1.64972],[29.25639,-1.65917],[29.24333,-1.66917],[29.24472,-1.675],[29.24417,-1.68028],[29.245,-1.68528],[29.245,-1.69806],[29.22139,-1.73056],[29.2225,-1.73111],[29.22333,-1.73194],[29.22444,-1.7325],[29.22556,-1.73306],[29.22639,-1.73361],[29.2275,-1.73444],[29.22861,-1.735],[29.22972,-1.73556],[29.23083,-1.73583],[29.23167,-1.73639],[29.23278,-1.73694],[29.23389,-1.7375],[29.235,-1.73778],[29.23611,-1.73833],[29.23722,-1.73861],[29.23833,-1.73917],[29.23944,-1.73944],[29.24083,-1.73972],[29.24194,-1.74],[29.24306,-1.74028],[29.24417,-1.74056],[29.24528,-1.74083],[29.24639,-1.74111],[29.24778,-1.74139],[29.24889,-1.74167],[29.25,-1.74167],[29.25111,-1.74194],[29.2525,-1.74194],[29.25361,-1.74222],[29.25472,-1.74222],[29.25611,-1.74222],[29.25722,-1.7425],[29.25833,-1.7425],[29.25944,-1.7425],[29.26083,-1.7425],[29.26194,-1.7425],[29.26306,-1.74222],[29.26444,-1.74222],[29.26556,-1.74222],[29.26667,-1.74194],[29.26778,-1.74194],[29.26917,-1.74167],[29.27028,-1.74139],[29.27139,-1.74139],[29.2725,-1.74111],[29.27389,-1.74083],[29.275,-1.74056],[29.27611,-1.74028],[29.27722,-1.74],[29.27833,-1.73944],[29.27944,-1.73917],[29.28056,-1.73889],[29.28167,-1.73833],[29.28278,-1.73806],[29.28389,-1.7375],[29.285,-1.73722],[29.28611,-1.73667],[29.28722,-1.73611],[29.28833,-1.73556],[29.28944,-1.735],[29.29056,-1.73444],[29.29139,-1.73389],[29.2925,-1.73333],[29.29361,-1.73278],[29.29444,-1.73194],[29.29556,-1.73139],[29.29667,-1.73083],[29.2975,-1.73],[29.29861,-1.72944],[29.29944,-1.72861],[29.30028,-1.72778],[29.30139,-1.72722],[29.30222,-1.72639],[29.30306,-1.72556],[29.30389,-1.72472],[29.305,-1.72389],[29.30583,-1.72306],[29.30667,-1.72222],[29.3075,-1.72139],[29.30806,-1.72056],[29.30889,-1.71972],[29.30972,-1.71861],[29.31056,-1.71778],[29.31111,-1.71694],[29.31194,-1.71583],[29.31278,-1.715],[29.31333,-1.71389],[29.31389,-1.71306],[29.31472,-1.71194],[29.31528,-1.71083],[29.31583,-1.71],[29.31639,-1.70889],[29.31694,-1.70778],[29.3175,-1.70694],[29.31806,-1.70583],[29.31861,-1.70472],[29.31917,-1.70361],[29.31972,-1.7025],[29.32,-1.70139],[29.32056,-1.70028],[29.32111,-1.69917],[29.32139,-1.69806],[29.32167,-1.69694],[29.32222,-1.69583],[29.3225,-1.69472],[29.32278,-1.69361],[29.32306,-1.69222],[29.32333,-1.69111],[29.32361,-1.69],[29.32389,-1.68889],[29.32389,-1.68778],[29.32417,-1.68639],[29.32444,-1.68528],[29.32444,-1.68417],[29.32472,-1.68306],[29.32472,-1.68167],[29.32472,-1.68056],[29.325,-1.67944],[29.325,-1.67806],[29.325,-1.67694],[29.325,-1.67583],[29.325,-1.67472],[29.325,-1.67333],[29.32472,-1.67222],[29.32472,-1.67111],[29.32472,-1.66972],[29.32444,-1.66861],[29.32417,-1.6675],[29.32417,-1.66639],[29.32389,-1.665],[29.32361,-1.66389],[29.32333,-1.66278],[29.32333,-1.66167],[29.32278,-1.66056],[29.3225,-1.65917],[29.32222,-1.65806],[29.32194,-1.65694],[29.32167,-1.65583],[29.32111,-1.65472],[29.32083,-1.65361],[29.32028,-1.6525],[29.32,-1.65139],[29.31944,-1.65028],[29.31889,-1.64917],[29.31833,-1.64806],[29.31778,-1.64694],[29.31722,-1.64611],[29.31667,-1.645],[29.31611,-1.64389],[29.31556,-1.64278],[29.315,-1.64194],[29.31417,-1.64083],[29.31333,-1.64],[29.3125,-1.63917],[29.31167,-1.63833],[29.31056,-1.63778],[29.30944,-1.63694],[29.30833,-1.63639],[29.30722,-1.63583],[29.30611,-1.63556],[29.30472,-1.635],[29.30361,-1.63472],[29.30222,-1.63444],[29.30111,-1.63417],[29.29972,-1.63389],[29.29833,-1.63389],[29.29694,-1.63389],[29.29556,-1.63389],[29.29417,-1.63389],[29.29306,-1.63389],[29.29167,-1.63417],[29.29028,-1.63417],[29.28889,-1.63444],[29.2875,-1.63472],[29.28639,-1.635],[29.285,-1.63528],[29.28389,-1.63556],[29.2825,-1.63611],[29.28139,-1.63639],[29.28028,-1.63694],[29.27917,-1.63722],[29.27806,-1.63778],[29.27694,-1.63833],[29.27583,-1.63861],[29.27472,-1.63917],[29.27389,-1.63972],[29.27306,-1.64],[29.27194,-1.64056],[29.27111,-1.64083],[29.27028,-1.64139],[29.26944,-1.64167],[29.26861,-1.64194],[29.26806,-1.6425],[29.26722,-1.6425],[29.26667,-1.64278],[29.26583,-1.64306],[29.26528,-1.64306],[29.26444,-1.64333],[29.26306,-1.64583]]]}}, {"type":"Feature","id":10,"properties":{"_id":"683320b0a89cd3f65b7c6aa8","createdBy":"eBT9qSrxquPVguazo7MwJzzaf2p1","createdAt":"2025-05-25T13:52:48.194Z","updatedBy":"eBT9qSrxquPVguazo7MwJzzaf2p1","updatedAt":"2025-05-25T14:16:58.084Z","name":"KAMEMBE","dataIngestion":true,"type":13,"icaoClass":3,"activity":0,"onDemand":false,"onRequest":false,"byNotam":false,"specialAgreement":false,"requestCompliance":false,"country":"RW","upperLimit":{"value":9000,"unit":1,"referenceDatum":1},"lowerLimit":{"value":0,"unit":1,"referenceDatum":0},"frequencies":[{"value":"120.700","primary":false,"unit":2,"name":"KAMEMBE TWR","_id":"6833264aa89cd3f65b7cc498"}],"hoursOfOperation":{"operatingHours":[{"dayOfWeek":0,"startTime":"00:00","endTime":"00:00","byNotam":false,"sunrise":false,"sunset":false,"publicHolidaysExcluded":false},{"dayOfWeek":1,"startTime":"00:00","endTime":"00:00","byNotam":false,"sunrise":false,"sunset":false,"publicHolidaysExcluded":false},{"dayOfWeek":2,"startTime":"00:00","endTime":"00:00","byNotam":false,"sunrise":false,"sunset":false,"publicHolidaysExcluded":false},{"dayOfWeek":3,"startTime":"00:00","endTime":"00:00","byNotam":false,"sunrise":false,"sunset":false,"publicHolidaysExcluded":false},{"dayOfWeek":4,"startTime":"00:00","endTime":"00:00","byNotam":false,"sunrise":false,"sunset":false,"publicHolidaysExcluded":false},{"dayOfWeek":5,"startTime":"00:00","endTime":"00:00","byNotam":false,"sunrise":false,"sunset":false,"publicHolidaysExcluded":false},{"dayOfWeek":6,"startTime":"00:00","endTime":"00:00","byNotam":false,"sunrise":false,"sunset":false,"publicHolidaysExcluded":false}]},"deletable":true},"geometry":{"type":"Polygon","coordinates":[[[28.86694,-2.43139],[28.86667,-2.43167],[28.86667,-2.43389],[28.86667,-2.43833],[28.8675,-2.44333],[28.86806,-2.44611],[28.87,-2.45],[28.87361,-2.45556],[28.88222,-2.46472],[28.89111,-2.47389],[28.89167,-2.47444],[28.89222,-2.47583],[28.89167,-2.47778],[28.89139,-2.48083],[28.89139,-2.48389],[28.89167,-2.48583],[28.89306,-2.49111],[28.89139,-2.49528],[28.89056,-2.49917],[28.89,-2.50111],[28.88972,-2.50306],[28.88861,-2.50556],[28.88972,-2.50583],[28.89056,-2.50639],[28.89167,-2.50667],[28.89278,-2.50694],[28.89361,-2.5075],[28.89472,-2.50778],[28.89556,-2.50806],[28.89667,-2.50833],[28.89778,-2.50861],[28.89889,-2.50861],[28.89972,-2.50889],[28.90083,-2.50917],[28.90194,-2.50917],[28.90306,-2.50944],[28.90417,-2.50944],[28.905,-2.50944],[28.90611,-2.50944],[28.90722,-2.50944],[28.90833,-2.50944],[28.90944,-2.50944],[28.91028,-2.50944],[28.91139,-2.50944],[28.9125,-2.50944],[28.91361,-2.50917],[28.91472,-2.50917],[28.91556,-2.50889],[28.91667,-2.50889],[28.91778,-2.50861],[28.91889,-2.50833],[28.91972,-2.50806],[28.92083,-2.50778],[28.92194,-2.5075],[28.92278,-2.50722],[28.92389,-2.50694],[28.92472,-2.50639],[28.92583,-2.50611],[28.92667,-2.50556],[28.92778,-2.50528],[28.92861,-2.50472],[28.92972,-2.50417],[28.93056,-2.50389],[28.93139,-2.50333],[28.9325,-2.50278],[28.93333,-2.50222],[28.93417,-2.50167],[28.935,-2.50111],[28.93583,-2.50028],[28.93667,-2.49972],[28.9375,-2.49917],[28.93833,-2.49833],[28.93917,-2.49778],[28.94,-2.49694],[28.94083,-2.49639],[28.94167,-2.49556],[28.94222,-2.49472],[28.94306,-2.49389],[28.94361,-2.49333],[28.94444,-2.4925],[28.945,-2.49167],[28.94556,-2.49083],[28.94639,-2.49],[28.94694,-2.48889],[28.9475,-2.48806],[28.94806,-2.48722],[28.94861,-2.48639],[28.94917,-2.48528],[28.94972,-2.48444],[28.95028,-2.48361],[28.95056,-2.4825],[28.95111,-2.48167],[28.95139,-2.48056],[28.95194,-2.47972],[28.95222,-2.47861],[28.9525,-2.47778],[28.95306,-2.47667],[28.95333,-2.47556],[28.95361,-2.47472],[28.95389,-2.47361],[28.95417,-2.4725],[28.95417,-2.47167],[28.95444,-2.47056],[28.95472,-2.46944],[28.95472,-2.46833],[28.955,-2.4675],[28.955,-2.46639],[28.955,-2.46528],[28.955,-2.46417],[28.95528,-2.46306],[28.95528,-2.46222],[28.95528,-2.46111],[28.955,-2.46],[28.955,-2.45889],[28.955,-2.45778],[28.95472,-2.45694],[28.95472,-2.45583],[28.95444,-2.45472],[28.95444,-2.45361],[28.95417,-2.45278],[28.95389,-2.45167],[28.95361,-2.45056],[28.95333,-2.44944],[28.95306,-2.44861],[28.95278,-2.4475],[28.9525,-2.44667],[28.95194,-2.44556],[28.95167,-2.44444],[28.95139,-2.44361],[28.95083,-2.4425],[28.95028,-2.44167],[28.95,-2.44083],[28.94944,-2.43972],[28.94889,-2.43889],[28.94833,-2.43806],[28.94778,-2.43694],[28.94722,-2.43611],[28.94667,-2.43528],[28.94611,-2.43444],[28.94528,-2.43361],[28.94472,-2.43278],[28.94417,-2.43194],[28.94333,-2.43111],[28.94278,-2.43028],[28.94194,-2.42972],[28.94111,-2.42889],[28.94028,-2.42806],[28.93972,-2.4275],[28.93889,-2.42667],[28.93806,-2.42611],[28.93722,-2.42528],[28.93639,-2.42472],[28.93556,-2.42417],[28.93472,-2.42333],[28.93389,-2.42278],[28.93278,-2.42222],[28.93194,-2.42167],[28.93111,-2.42111],[28.93,-2.42083],[28.92917,-2.42028],[28.92833,-2.41972],[28.92722,-2.41917],[28.92639,-2.41889],[28.92528,-2.41861],[28.92444,-2.41806],[28.92333,-2.41778],[28.92222,-2.4175],[28.92139,-2.41722],[28.92028,-2.41694],[28.91917,-2.41667],[28.91833,-2.41639],[28.91722,-2.41611],[28.91611,-2.41583],[28.915,-2.41556],[28.91417,-2.41556],[28.91306,-2.41528],[28.91194,-2.41528],[28.91083,-2.415],[28.91,-2.415],[28.90889,-2.415],[28.90778,-2.41472],[28.90667,-2.41472],[28.90556,-2.41472],[28.90444,-2.41472],[28.90333,-2.41472],[28.90222,-2.41472],[28.90139,-2.41472],[28.90028,-2.41472],[28.89917,-2.41472],[28.89806,-2.415],[28.89694,-2.415],[28.89583,-2.41528],[28.89472,-2.41528],[28.89361,-2.41556],[28.8925,-2.41583],[28.89139,-2.41611],[28.89056,-2.41639],[28.88944,-2.41667],[28.88833,-2.41694],[28.88722,-2.41722],[28.88611,-2.4175],[28.885,-2.41806],[28.88417,-2.41833],[28.88306,-2.41889],[28.88194,-2.41944],[28.88083,-2.41972],[28.88,-2.42028],[28.87889,-2.42083],[28.87806,-2.42139],[28.87694,-2.42222],[28.87611,-2.42278],[28.875,-2.42333],[28.87417,-2.42417],[28.87333,-2.42472],[28.8725,-2.42556],[28.87167,-2.42639],[28.87083,-2.42694],[28.87,-2.42778],[28.86917,-2.42861],[28.86833,-2.42944],[28.86778,-2.43056],[28.86694,-2.43139]]]}}]}